,Borough,Area,Address,Num_Beds,Num_Baths,Sq-Ft,Rent,Long,Lat,ZipCode,Precinct
0,bronx,Tremont,2065 Ryer Avenue,2.0,1.0,719.0,2217.0,-73.9012094,40.8523615,10457.0,46.0
1,bronx,Crotona Park East,1169 Hoe Avenue,2.0,1.0,848.76,2425.0,-73.89099858823529,40.82780388235294,10459.0,42.0
2,bronx,Highbridge,1515 Macombs Road,1.0,1.0,631.43,1800.0,-73.9177249775813,40.84355975766774,10452.0,44.0
3,bronx,Norwood,31 West Mosholu Parkway North,2.0,1.0,833.22,1950.0,-73.8844669,40.8818283,10467.0,52.0
4,bronx,west concourse,2401 3rd Avenue,1.0,1.0,675.0,3132.0,-73.931714,40.808009,10451.0,44.0
5,bronx,Kingsbridge Heights,114 West 238th Street,1.0,1.0,450.0,1700.0,-73.89789650907466,40.88318326602887,10463.0,50.0
6,bronx,Fordham,2692 Creston Avenue,1.0,1.0,642.88,2150.0,-73.8944626388889,40.86778669444444,10468.0,52.0
7,bronx,Fordham,2692 Creston Avenue,2.0,1.0,846.31,2350.0,-73.8944626388889,40.86778669444444,10468.0,52.0
8,bronx,west concourse,2401 3rd Avenue,0.5,1.0,571.95,2991.0,-73.931714,40.808009,10451.0,44.0
9,bronx,University Heights,2265 University Avenue,1.0,1.0,629.79,1750.0,-73.90745559210526,40.86010392105263,10468.0,52.0
10,bronx,Tremont,2095 Grand Concourse,1.0,1.0,622.43,1525.0,-73.902149375,40.85381375,10457.0,46.0
11,bronx,west concourse,2401 3rd Avenue,0.5,1.0,581.76,3291.0,-73.931714,40.808009,10451.0,44.0
12,bronx,Tremont,2095 Grand Concourse,2.0,1.0,825.86,1725.0,-73.902149375,40.85381375,10457.0,46.0
13,bronx,Riverdale,3240 Henry Hudson Parkway East,2.0,2.0,1171.26,2850.0,-73.91296163025211,40.88556913445378,10463.0,50.0
14,bronx,west concourse,2401 3rd Avenue,2.0,2.0,1240.69,4972.0,-73.931714,40.808009,10451.0,44.0
15,bronx,west concourse,2401 3rd Avenue,1.0,1.0,677.69,3214.0,-73.931714,40.808009,10451.0,44.0
16,bronx,Mott Haven,101 Bruckner Boulevard,2.0,2.0,1182.71,3200.0,-73.923106,40.805086,10454.0,44.0
17,bronx,Riverdale,5421 Sylvan Avenue,1.0,1.0,626.52,1650.0,-73.8988257,40.9020334,10471.0,50.0
18,bronx,west concourse,2401 3rd Avenue,3.0,2.0,1439.31,5025.0,-73.931714,40.808009,10451.0,44.0
19,bronx,University Heights,2471 Grand Avenue,3.0,1.0,1048.1,2500.0,-73.90289631818182,40.86346186363636,10468.0,52.0
20,bronx,Throgs Neck,2879 Philip Avenue,1.0,1.0,637.15,1975.0,-73.82447672727272,40.82752354545455,10465.0,43.0
21,bronx,Riverdale,5530 Netherland Avenue,2.0,1.0,847.94,2400.0,-73.906374,40.903233,10471.0,50.0
22,bronx,Soundview,102 Lighthouse Court,2.0,1.0,800.0,2100.0,-73.84985930612244,40.8073522244898,10473.0,43.0
23,bronx,Woodlawn,108 East 237th Street,3.0,1.0,1500.0,3000.0,-73.87251314285714,40.89832728571429,10470.0,50.0
24,bronx,North New York,522 East 142nd Street,2.0,1.0,725.0,2395.0,-73.91711932653061,40.81010140816326,10454.0,44.0
25,bronx,Bronxwood,2700 Bronx Park East,1.0,1.0,483.0,1625.0,-73.870314,40.865488,10467.0,49.0
26,bronx,west concourse,2401 3rd Avenue,0.5,1.0,453.0,2943.0,-73.931714,40.808009,10451.0,44.0
27,bronx,west concourse,2401 3rd Avenue,1.0,1.0,686.32,3478.0,-73.931714,40.808009,10451.0,44.0
28,bronx,west concourse,2401 3rd Avenue,0.5,1.0,453.0,2943.0,-73.931714,40.808009,10451.0,44.0
29,bronx,west concourse,2401 3rd Avenue,0.5,1.0,580.62,3256.0,-73.931714,40.808009,10451.0,44.0
30,bronx,west concourse,2401 3rd Avenue,0.5,1.0,439.0,2905.0,-73.931714,40.808009,10451.0,44.0
31,bronx,west concourse,2401 3rd Avenue,1.0,1.0,675.0,3132.0,-73.931714,40.808009,10451.0,44.0
32,bronx,west concourse,2401 3rd Avenue,1.0,1.0,675.0,3132.0,-73.931714,40.808009,10451.0,44.0
33,bronx,North New York,408 East 134th Street,1.0,1.0,642.88,2150.0,-73.92443578723405,40.80633210638298,10454.0,44.0
34,bronx,University Heights,2201 Jerome Avenue,1.0,1.0,633.06,1850.0,-73.904728,40.857184,10453.0,46.0
35,bronx,Parkchester,2240 East Tremont Avenue,0.5,1.0,395.0,1350.0,-73.85583055555556,40.84210255555556,10462.0,43.0
36,bronx,University Heights,2265 University Avenue,0.5,1.0,522.35,1475.0,-73.90745559210526,40.86010392105263,10468.0,52.0
37,bronx,Riverdale,3636 Fieldston Road,1.0,1.0,800.0,2000.0,-73.90670554545454,40.88633654545455,10463.0,50.0
38,bronx,west concourse,228 East 135th Street,0.5,1.0,545.25,2175.0,-73.93017744736842,40.81041402631579,10451.0,44.0
39,bronx,Bronx,22 East 212th Street,2.0,1.0,841.4,2200.0,-73.87887111111111,40.88383,10467.0,52.0
40,bronx,Morris Heights,1633 Macombs Road,1.0,1.0,633.06,1850.0,-73.91736207815447,40.8461613023418,10452.0,46.0
41,bronx,west concourse,228 East 135th Street,2.0,1.0,861.03,2800.0,-73.93017744736842,40.81041402631579,10451.0,44.0
42,bronx,west concourse,276 Grand Concourse,2.0,2.0,1194.16,3550.0,-73.9293465,40.81378782608696,10451.0,44.0
43,bronx,west concourse,2401 3rd Avenue,2.0,2.0,1240.69,4972.0,-73.931714,40.808009,10451.0,44.0
44,bronx,west concourse,228 East 135th Street,1.0,1.0,645.99,2245.0,-73.93017744736842,40.81041402631579,10451.0,44.0
45,bronx,Concourse,343 East 173rd Street,1.0,1.0,629.79,1750.0,-73.90517688461537,40.84351965384615,10457.0,44.0
46,bronx,west concourse,2401 3rd Avenue,0.5,1.0,453.0,2943.0,-73.931714,40.808009,10451.0,44.0
47,bronx,City Island,456 City Island Avenue,1.0,1.0,627.99,1695.0,-73.78830662499999,40.851106375,10464.0,45.0
48,bronx,Morris Heights,1635 Macombs Road,1.0,1.0,633.06,1850.0,-73.9166647,40.8470536,10453.0,46.0
49,bronx,Belmont,518 East 187th Street,1.0,1.0,620.8,1475.0,-73.89033252380952,40.85691719047619,10458.0,48.0
50,bronx,Spuyten Duyvil,2728 Henry Hudson Parkway,1.0,1.0,850.0,2250.0,-73.91676068456376,40.881424926174496,10463.0,50.0
51,bronx,Kingsbridge Heights,3340 Fort Independence Street,0.5,1.0,527.26,1625.0,-73.89939946277843,40.879580377588894,10463.0,50.0
52,bronx,Concourse,1254 Sherman Avenue,1.0,1.0,600.0,1050.0,-73.9153062857143,40.83458132653061,10456.0,44.0
53,bronx,Fordham,2700 Creston Avenue,1.0,1.0,626.75,1657.0,-73.89434386111111,40.86795080555555,10468.0,52.0
54,bronx,Bronxwood,2720 Bronx Park East,1.0,1.0,625.7,1625.0,-73.8702417,40.8661719,10467.0,49.0
55,bronx,Spuyten Duyvil,2465 Palisade Avenue,1.0,1.0,1000.0,3300.0,-73.9222991901712,40.87993466792459,10463.0,50.0
56,bronx,west concourse,2401 3rd Avenue,0.5,1.0,575.35,3095.0,-73.931714,40.808009,10451.0,44.0
57,bronx,Belmont,502 East 189th Street,1.0,1.0,630.38,1768.0,-73.88814256666666,40.85859311666667,10458.0,48.0
58,bronx,Morris Park,2106 Wallace Avenue,0.5,1.0,650.0,1500.0,-73.86473597142857,40.85347731428571,10462.0,49.0
59,bronx,Spuyten Duyvil,2600 Netherland Avenue,2.0,2.0,1250.0,3375.0,-73.916036,40.878462,10463.0,50.0
60,bronx,west concourse,228 East 135th Street,2.0,1.0,861.03,2800.0,-73.93017744736842,40.81041402631579,10451.0,44.0
61,bronx,Bronxwood,2760 Barnes Avenue,2.0,1.0,1000.0,2100.0,-73.863388,40.86625536363636,10467.0,49.0
62,bronx,Riverdale,6425 Broadway,1.0,1.0,633.06,1850.0,-73.8965183076923,40.90348338461538,10471.0,50.0
63,bronx,Concourse,1200 College Avenue,1.0,1.0,629.79,1750.0,-73.9135,40.832386,10456.0,44.0
64,bronx,Mott Haven,101 Bruckner Boulevard,1.0,2.0,998.91,3600.0,-73.923106,40.805086,10454.0,44.0
65,bronx,Mott Haven,101 Bruckner Boulevard,1.0,1.0,647.79,2300.0,-73.923106,40.805086,10454.0,44.0
66,bronx,Mott Haven,101 Bruckner Boulevard,2.0,2.0,1185.99,3300.0,-73.923106,40.805086,10454.0,44.0
67,bronx,Mott Haven,101 Bruckner Boulevard,2.0,2.0,1182.71,3200.0,-73.923106,40.805086,10454.0,44.0
68,bronx,Kingsbridge,3422 Irwin Avenue,5.0,3.0,2108.15,4000.0,-73.906115,40.88391722222222,10463.0,50.0
69,bronx,Riverdale,3820 Waldo Avenue,1.0,1.0,633.06,1850.0,-73.9035146,40.887669,10463.0,50.0
71,bronx,west concourse,2401 3rd Avenue,0.5,1.0,581.76,3291.0,-73.931714,40.808009,10451.0,44.0
72,bronx,Riverdale,3707 Blackstone Avenue,3.0,2.0,1735.0,6900.0,-73.9117933,40.8886924,10463.0,50.0
73,bronx,Riverdale,4705 Henry Hudson Parkway,1.0,1.0,644.51,2200.0,-73.90925403392697,40.89516745,10471.0,50.0
74,bronx,west concourse,2401 3rd Avenue,2.0,2.0,1234.93,4796.0,-73.931714,40.808009,10451.0,44.0
75,bronx,Riverdale,4901 Henry Hudson Parkway West,1.0,1.0,644.51,2200.0,-73.90891279690675,40.896541,10471.0,50.0
76,bronx,Country Club,1130 Stadium Avenue,1.0,1.0,634.54,1895.0,-73.8168099,40.8363486,10465.0,49.0
77,bronx,Melrose,381 East 151st Street,1.0,1.0,623.25,1550.0,-73.91781912220797,40.817777831511286,10455.0,44.0
78,bronx,Pelham Parkway,2120 Cruger Avenue,1.0,1.0,629.79,1750.0,-73.86683373076923,40.85346313461539,10462.0,49.0
79,bronx,Spuyten Duyvil,2728 Henry Hudson Parkway,3.0,2.0,1200.0,3250.0,-73.91676068456376,40.881424926174496,10463.0,50.0
80,bronx,Concourse,85 Mcclellan Street,1.0,1.0,631.26,1795.0,-73.9210023,40.833866,10452.0,44.0
81,bronx,North New York,443 East 141st Street,3.0,2.5,1522.45,2850.0,-73.91993971428572,40.81047271428572,10454.0,44.0
82,bronx,North New York,466 Concord Avenue,2.0,1.0,834.86,2000.0,-73.90880936,40.81091664,10455.0,40.0
83,bronx,Fordham,2376 Ryer Avenue,2.0,1.0,825.86,1725.0,-73.8980218,40.8591942,10458.0,46.0
84,bronx,west concourse,276 Grand Concourse,0.5,1.0,544.93,2165.0,-73.9293465,40.81378782608696,10451.0,44.0
85,bronx,west concourse,276 Grand Concourse,1.0,1.0,664.96,2825.0,-73.9293465,40.81378782608696,10451.0,44.0
86,bronx,West Farms,984 Bronx Park South,2.0,1.0,825.86,1725.0,-73.87854963157895,40.84475447368421,10460.0,48.0
87,bronx,Pelham Parkway,1025 Esplanade,1.0,1.0,629.79,1750.0,-73.8595805,40.8553222,10461.0,49.0
88,bronx,west concourse,2401 3rd Avenue,2.0,2.0,1240.36,4962.0,-73.931714,40.808009,10451.0,44.0
89,bronx,Mott Haven,101 Bruckner Boulevard,1.0,1.0,647.79,2300.0,-73.923106,40.805086,10454.0,44.0
90,bronx,Concourse,1515 Grand Concourse,1.0,1.0,629.79,1750.0,-73.91228585714286,40.841263653061226,10457.0,44.0
91,bronx,Mott Haven,101 Bruckner Boulevard,2.0,2.0,1185.99,3300.0,-73.923106,40.805086,10454.0,44.0
92,bronx,Fordham,2825 Grand Concourse,2.0,1.0,834.86,2000.0,-73.89124976610618,40.869634430904135,10458.0,52.0
94,bronx,Mott Haven,101 Bruckner Boulevard,2.0,2.0,1182.71,3200.0,-73.923106,40.805086,10454.0,44.0
95,bronx,Throgs Neck,3153 Lafayette Avenue,3.0,1.0,980.0,2700.0,-73.82001595918368,40.832222306122446,10465.0,43.0
96,bronx,Riverdale,3660 Waldo Avenue,2.0,1.0,851.22,2500.0,-73.90479074030357,40.886397401808345,10463.0,50.0
97,bronx,Bronxwood,2702 Bronx Park East,1.0,1.0,625.7,1625.0,-73.87031459183673,40.86550887755102,10467.0,49.0
98,bronx,west concourse,2401 3rd Avenue,0.5,1.0,579.47,3221.0,-73.931714,40.808009,10451.0,44.0
99,bronx,Crotona Park East,1536 Longfellow Avenue,4.0,1.0,1240.08,2350.0,-73.88590041025641,40.83322715384615,10460.0,42.0
100,bronx,Castle Hill,2068 Story Avenue,3.0,1.0,1039.92,2250.0,-73.85356785714285,40.824828653061225,10473.0,43.0
101,bronx,Kingsbridge,3415 Corlear Avenue,3.0,2.0,1368.15,2850.0,-73.90482781818181,40.88311246464647,10463.0,50.0
102,bronx,west concourse,2401 3rd Avenue,0.5,1.0,453.0,2943.0,-73.931714,40.808009,10451.0,44.0
103,bronx,Wakefield,1012 East 223rd Street,3.0,1.5,1215.49,2900.0,-73.85241663265306,40.88349502040816,10466.0,49.0
104,bronx,Riverdale,3707 Blackstone Avenue,1.0,1.0,900.0,3500.0,-73.9117933,40.8886924,10463.0,50.0
105,bronx,Fordham,2721 Morris Avenue,1.0,1.0,621.45,1495.0,-73.8955164090909,40.868208045454544,10468.0,52.0
106,bronx,West Farms,932 Bronx Park South,0.5,1.0,523.17,1500.0,-73.88009994736842,40.84582847368421,10460.0,48.0
107,bronx,Westchester Square,1502 Hone Avenue,0.5,1.0,514.99,1250.0,-73.8508305,40.8431311,10461.0,49.0
108,bronx,Bedford Park,207 East 205th Street,3.0,2.0,1000.0,2850.0,-73.87912596392769,40.87388942960345,10467.0,52.0
109,bronx,West Farms,926 Bronx Park South,2.0,1.0,837.97,2095.0,-73.88026447368422,40.8459407368421,10460.0,48.0
110,bronx,Riverdale,4475 Henry Hudson Parkway West,2.0,2.0,1158.64,2464.0,-73.9092048,40.8904023,10471.0,50.0
111,bronx,University Heights,2391 Davidson Avenue,3.0,1.0,1039.11,2225.0,-73.90329777777778,40.86141611111111,10468.0,52.0
112,bronx,Parkchester,2240 East Tremont Avenue,0.5,1.0,395.0,1350.0,-73.85583055555556,40.84210255555556,10462.0,43.0
113,bronx,Spuyten Duyvil,2600 Netherland Avenue,2.0,2.0,1250.0,3375.0,-73.916036,40.878462,10463.0,50.0
114,bronx,Riverdale,3660 Waldo Avenue,2.0,1.0,849.58,2450.0,-73.90479074030357,40.886397401808345,10463.0,50.0
115,bronx,University Heights,2512 University Avenue,1.0,1.0,623.54,1559.0,-73.9030345625,40.86553122916666,10468.0,52.0
116,bronx,west concourse,2401 3rd Avenue,0.5,1.0,571.95,2991.0,-73.931714,40.808009,10451.0,44.0
117,bronx,University Heights,2512 University Avenue,2.0,1.0,838.13,2100.0,-73.9030345625,40.86553122916666,10468.0,52.0
118,bronx,Country Club,3284 Griswold Avenue,0.5,1.0,529.71,1700.0,-73.81724954398678,40.84473362847176,10465.0,49.0
119,bronx,Pelham Bay,2023 Burr Avenue,0.5,1.0,523.14,1499.0,-73.82753108163266,40.85361326530612,10461.0,49.0
120,bronx,Riverdale,630 West 246th Street,2.0,1.5,1031.52,3295.0,-73.91121795238095,40.89229771428572,10471.0,50.0
121,bronx,Morris Park,1964 Lurting Avenue,2.0,1.0,834.86,2000.0,-73.8566129,40.8529082,10461.0,49.0
122,bronx,Bronxwood,2700 Bronx Park East,1.0,1.0,479.0,1625.0,-73.870314,40.865488,10467.0,49.0
123,bronx,Kingsbridge,3045 Godwin Terrace,1.0,1.0,750.0,1850.0,-73.9063018,40.8789043,10463.0,50.0
124,bronx,Pelham Parkway,2102 Holland Avenue,1.0,1.0,629.3,1735.0,-73.86570389473684,40.8525937368421,10462.0,49.0
125,bronx,Melrose,421 East 158th Street,1.0,1.0,631.4,1799.0,-73.91417807142858,40.82219,10451.0,42.0
126,bronx,west concourse,228 East 135th Street,2.0,1.0,861.03,2800.0,-73.93017744736842,40.81041402631579,10451.0,44.0
127,bronx,west concourse,276 Grand Concourse,0.5,1.0,544.93,2165.0,-73.9293465,40.81378782608696,10451.0,44.0
128,bronx,Bronxwood,2550 Olinville Avenue,0.5,1.0,519.87,1399.0,-73.8681569,40.8646715,10467.0,49.0
129,bronx,west concourse,224 East 135th Street,2.0,1.0,881.71,3432.0,-73.93019397368421,40.81042676315789,10451.0,44.0
130,bronx,west concourse,2401 3rd Avenue,1.0,1.0,675.0,3132.0,-73.931714,40.808009,10451.0,44.0
131,bronx,west concourse,224 East 135th Street,1.0,1.0,654.85,2516.0,-73.93019397368421,40.81042676315789,10451.0,44.0
132,bronx,Schuylerville,3189 East Tremont Avenue,1.0,1.0,626.52,1650.0,-73.83392242857143,40.83696885714286,10461.0,49.0
133,bronx,west concourse,224 East 135th Street,1.0,1.0,644.51,2200.0,-73.93019397368421,40.81042676315789,10451.0,44.0
134,bronx,west concourse,224 East 135th Street,2.0,1.0,861.03,2800.0,-73.93019397368421,40.81042676315789,10451.0,44.0
136,bronx,Concourse,860 Grand Concourse,1.0,1.0,636.34,1950.0,-73.922776,40.8261237,10451.0,44.0
137,bronx,Van Nest,1755 Taylor Avenue,3.0,1.0,1045.65,2425.0,-73.870206,40.8433059,10460.0,49.0
138,bronx,Riverdale,5614 Riverdale Avenue,3.0,1.0,1100.0,2400.0,-73.90447555,40.90459305,10471.0,50.0
139,bronx,Schuylerville,2738 Gifford Avenue,0.5,1.0,550.0,1450.0,-73.83328559183674,40.83103779591837,10465.0,43.0
140,bronx,Riverdale,3333 Henry Hudson Parkway,0.5,2.0,943.0,4900.0,-73.91344,40.8859933,10463.0,50.0
141,bronx,Crotona Park East,1536 Longfellow Avenue,4.0,1.0,1240.08,2350.0,-73.88590041025641,40.83322715384615,10460.0,42.0
142,bronx,Fordham,2567 Decatur Avenue,3.0,1.0,1038.29,2200.0,-73.89106981818182,40.862685727272726,10458.0,52.0
143,bronx,Fordham,2549 Decatur Avenue,2.0,1.0,829.95,1850.0,-73.89138192307692,40.86238276923077,10458.0,52.0
144,bronx,west concourse,2401 3rd Avenue,1.0,1.0,676.51,3178.0,-73.931714,40.808009,10451.0,44.0
145,bronx,Bronxwood,2700 Bronx Park East,1.0,1.0,483.0,1675.0,-73.870314,40.865488,10467.0,49.0
146,bronx,Soundview,1064 Ward Avenue,1.0,1.0,623.25,1550.0,-73.8765575,40.8261204,10472.0,43.0
147,bronx,Kingsbridge Heights,114 West 238th Street,1.0,1.0,626.52,1650.0,-73.89789650907466,40.88318326602887,10463.0,50.0
148,bronx,west concourse,276 Grand Concourse,1.0,1.0,664.96,2825.0,-73.9293465,40.81378782608696,10451.0,44.0
149,bronx,Mott Haven,329 East 132nd Street,2.0,2.0,1174.54,2950.0,-73.92747557142857,40.806042857142856,10454.0,44.0
150,bronx,Pelham Gardens,2519 Woodhull Avenue,3.0,1.0,1071.0,3200.0,-73.8418556,40.8633543,10469.0,49.0
151,bronx,Belmont,667 East 187th Street,1.0,1.0,619.98,1450.0,-73.8855501,40.8547064,10458.0,48.0
152,bronx,Concourse,143 East 149th Street,4.0,1.5,1410.74,2850.0,-73.9280426,40.8189095,10451.0,44.0
153,bronx,Parkchester,2130 East Tremont Avenue,2.0,1.0,839.76,2150.0,-73.85725148421052,40.84194044210527,10462.0,43.0
154,bronx,Fordham,2482 Tiebout Avenue,3.0,1.0,1053.01,2650.0,-73.8949617368421,40.8614657368421,10458.0,46.0
155,bronx,west concourse,2401 3rd Avenue,2.0,2.0,1235.12,4802.0,-73.931714,40.808009,10451.0,44.0
156,bronx,Mott Haven,101 Bruckner Boulevard,1.0,1.0,647.79,2300.0,-73.923106,40.805086,10454.0,44.0
157,bronx,Mott Haven,101 Bruckner Boulevard,2.0,2.0,1185.99,3300.0,-73.923106,40.805086,10454.0,44.0
158,bronx,west concourse,2401 3rd Avenue,2.0,2.0,1240.36,4962.0,-73.931714,40.808009,10451.0,44.0
159,bronx,Mott Haven,101 Bruckner Boulevard,2.0,2.0,1182.71,3200.0,-73.923106,40.805086,10454.0,44.0
160,bronx,Mt. Hope,1881 Grand Concourse,2.0,1.0,839.76,2150.0,-73.9068757,40.8488999,10453.0,46.0
161,bronx,Crotona Park East,1536 Longfellow Avenue,4.0,1.0,1240.08,2350.0,-73.88590041025641,40.83322715384615,10460.0,42.0
162,bronx,Throgs Neck,194 Kearney Avenue,3.0,1.0,1332.0,2850.0,-73.81136772413792,40.81730941379311,10465.0,45.0
163,bronx,Mott Haven,329 East 132nd Street,0.5,1.0,544.43,2150.0,-73.92747557142857,40.806042857142856,10454.0,44.0
164,bronx,City Island,412 Minnieford Avenue,3.0,2.0,1325.0,4500.0,-73.786749,40.85026625,10464.0,45.0
165,bronx,Riverdale,3240 Henry Hudson Parkway East,4.0,3.0,1922.71,4350.0,-73.91296163025211,40.88556913445378,10463.0,50.0
166,bronx,North New York,454 East 138th Street,0.5,1.0,532.59,1788.0,-73.92119206976744,40.80829648837209,10454.0,44.0
167,bronx,Concourse,860 Grand Concourse,1.0,1.0,750.0,1950.0,-73.922776,40.8261237,10451.0,44.0
168,bronx,west concourse,276 Grand Concourse,2.0,2.0,1190.89,3450.0,-73.9293465,40.81378782608696,10451.0,44.0
169,bronx,Riverdale,3333 Henry Hudson Parkway,0.5,2.0,943.0,4900.0,-73.91344,40.8859933,10463.0,50.0
170,bronx,Melrose,837 Washington Avenue,1.0,1.0,675.0,1800.0,-73.91173297959183,40.82240281632653,10451.0,42.0
171,bronx,Norwood,183 East Mosholu Parkway North,3.0,1.0,1800.0,2800.0,-73.88137942105263,40.8751702631579,10467.0,52.0
172,bronx,west concourse,2401 3rd Avenue,0.5,1.0,577.15,3150.0,-73.931714,40.808009,10451.0,44.0
173,bronx,Norwood,75 West Mosholu Parkway North,0.5,1.0,521.53,1450.0,-73.88501362037752,40.88289968634639,10467.0,52.0
175,bronx,Riverdale,5900 Arlington Avenue,0.5,1.0,534.62,1850.0,-73.906375,40.908581,10471.0,50.0
176,bronx,West Farms,946 Bronx Park South,1.0,1.0,626.52,1650.0,-73.87971605263158,40.84556652631579,10460.0,48.0
177,bronx,Pelham Parkway,2198 Cruger Avenue,3.0,1.0,1048.1,2500.0,-73.8665085,40.8563031,10462.0,49.0
178,bronx,west concourse,2401 3rd Avenue,2.0,2.0,1240.19,4957.0,-73.931714,40.808009,10451.0,44.0
179,bronx,west concourse,2401 3rd Avenue,2.0,2.0,1240.69,4972.0,-73.931714,40.808009,10451.0,44.0
180,bronx,Mott Haven,101 Bruckner Boulevard,1.0,2.0,998.91,3600.0,-73.923106,40.805086,10454.0,44.0
181,bronx,Spuyten Duyvil,2750 Johnson Avenue,3.0,2.0,1400.0,3900.0,-73.91553255747452,40.87806168066888,10463.0,50.0
182,bronx,west concourse,2401 3rd Avenue,0.5,1.0,580.62,3256.0,-73.931714,40.808009,10451.0,44.0
183,bronx,Parkchester,2240 East Tremont Avenue,0.5,1.0,395.0,1350.0,-73.85583055555556,40.84210255555556,10462.0,43.0
184,bronx,University Heights,2265 University Avenue,0.5,1.0,521.53,1450.0,-73.90745559210526,40.86010392105263,10468.0,52.0
185,bronx,Highbridge,1329 Inwood Avenue,4.0,1.0,1261.31,2999.0,-73.91993102564102,40.839033666666666,10452.0,44.0
186,bronx,west concourse,228 East 135th Street,2.0,1.0,861.03,2800.0,-73.93017744736842,40.81041402631579,10451.0,44.0
187,bronx,Highbridge,1329 Inwood Avenue,4.0,1.0,1253.17,2750.0,-73.91993102564102,40.839033666666666,10452.0,44.0
188,bronx,City Island,535 Minnieford Avenue,3.0,2.0,1300.0,2950.0,-73.78883651999999,40.85300316,10464.0,45.0
189,bronx,west concourse,276 Grand Concourse,3.0,2.0,1410.68,4150.0,-73.9293465,40.81378782608696,10451.0,44.0
190,bronx,west concourse,276 Grand Concourse,2.0,2.0,1194.16,3550.0,-73.9293465,40.81378782608696,10451.0,44.0
191,bronx,west concourse,276 Grand Concourse,2.0,2.0,1190.89,3450.0,-73.9293465,40.81378782608696,10451.0,44.0
192,bronx,University Heights,30 West 181st Street,3.0,2.0,1363.24,2700.0,-73.9068615,40.8561404,10453.0,46.0
193,bronx,west concourse,276 Grand Concourse,1.0,1.0,670.69,3000.0,-73.9293465,40.81378782608696,10451.0,44.0
194,bronx,Spuyten Duyvil,3300 Netherland Avenue,1.0,1.0,642.88,2150.0,-73.91125569127516,40.88450932214765,10463.0,50.0
195,bronx,Spuyten Duyvil,3300 Netherland Avenue,2.0,2.0,1000.0,2650.0,-73.91125569127516,40.88450932214765,10463.0,50.0
196,bronx,west concourse,2401 3rd Avenue,2.0,2.0,1234.93,4796.0,-73.931714,40.808009,10451.0,44.0
197,bronx,west concourse,224 East 135th Street,2.0,1.0,881.71,3432.0,-73.93019397368421,40.81042676315789,10451.0,44.0
198,bronx,west concourse,276 Grand Concourse,0.5,1.0,560.79,2650.0,-73.9293465,40.81378782608696,10451.0,44.0
199,bronx,west concourse,276 Grand Concourse,0.5,1.0,544.93,2165.0,-73.9293465,40.81378782608696,10451.0,44.0
200,bronx,west concourse,2401 3rd Avenue,1.0,1.0,675.0,3132.0,-73.931714,40.808009,10451.0,44.0
201,bronx,west concourse,2401 3rd Avenue,3.0,2.0,1439.31,5025.0,-73.931714,40.808009,10451.0,44.0
202,bronx,Highbridge,1190 Shakespeare Avenue,1.0,1.0,630.94,1785.0,-73.92321577657644,40.83690844631376,10452.0,44.0
203,bronx,Kingsbridge Heights,3111 Heath Avenue,1.0,1.0,631.26,1795.0,-73.90103097119714,40.87846297680221,10463.0,50.0
204,bronx,Bedford Park,2876 Jerome Avenue,0.5,1.0,523.99,1525.0,-73.89164479362208,40.8717216020104,10468.0,52.0
205,bronx,Throgs Neck,928 Quincy Avenue,2.0,1.0,834.86,2000.0,-73.82807100000001,40.82892614285714,10465.0,43.0
206,bronx,Concourse,1241 College Avenue,2.0,1.0,833.22,1950.0,-73.912831,40.83389975,10456.0,44.0
207,bronx,Mott Haven,112 Lincoln Avenue,0.5,1.0,542.8,2100.0,-73.9292425,40.8077952,10454.0,44.0
208,bronx,Soundview,1207 Boynton Avenue,1.0,1.0,620.8,1475.0,-73.8784297,40.8289217,10472.0,43.0
209,bronx,Morris Park,1614 Haight Avenue,2.0,1.0,1000.0,2095.0,-73.85075028571428,40.846765857142856,10461.0,49.0
210,bronx,Crotona Park East,1169 Hoe Avenue,2.0,1.0,848.76,2425.0,-73.89099858823529,40.82780388235294,10459.0,42.0
211,bronx,Crotona Park East,1536 Longfellow Avenue,4.0,1.0,1240.08,2350.0,-73.88590041025641,40.83322715384615,10460.0,42.0
212,bronx,Melrose,425 East 154th Street,1.0,1.0,750.0,1895.0,-73.91568530612244,40.81947928571428,10455.0,42.0
213,bronx,Wakefield,652 East 230th Street,3.0,1.0,1000.0,2300.0,-73.86021273684212,40.891787578947365,10466.0,52.0
214,bronx,west concourse,2401 3rd Avenue,0.5,1.0,439.0,2905.0,-73.931714,40.808009,10451.0,44.0
215,bronx,Mott Haven,101 Bruckner Boulevard,2.0,2.0,1185.99,3300.0,-73.923106,40.805086,10454.0,44.0
216,bronx,Mott Haven,101 Bruckner Boulevard,2.0,2.0,1182.71,3200.0,-73.923106,40.805086,10454.0,44.0
217,bronx,Parkchester,2220 East Tremont Avenue,1.0,1.0,621.0,1600.0,-73.85591877777779,40.84209277777778,10462.0,43.0
218,bronx,Mott Haven,329 East 132nd Street,1.0,1.0,644.51,2200.0,-73.92747557142857,40.806042857142856,10454.0,44.0
219,bronx,Melrose,706 Courtlandt Avenue,2.0,1.0,831.59,1900.0,-73.91772766666666,40.820363666666665,10451.0,44.0
220,bronx,Woodstock,3044 Third Avenue,1.0,1.0,631.43,1800.0,-73.9302259,40.8089453,10037.0,44.0
221,bronx,Belmont,667 East 187th Street,2.0,1.0,822.59,1625.0,-73.8855501,40.8547064,10458.0,48.0
222,bronx,Mott Haven,112 Lincoln Avenue,1.0,1.0,659.24,2650.0,-73.9292425,40.8077952,10454.0,44.0
223,bronx,University Heights,2115 Davidson Avenue,3.0,2.0,1083.0,2800.0,-73.9071395,40.8554815,10453.0,46.0
224,bronx,Riverdale,3333 Henry Hudson Parkway,0.5,2.0,943.0,4900.0,-73.91344,40.8859933,10463.0,50.0
225,bronx,Crotona Park East,1169 Hoe Avenue,2.0,1.0,848.76,2425.0,-73.89099858823529,40.82780388235294,10459.0,42.0
226,bronx,Highbridge,1030 Woodycrest Avenue,1.0,1.0,628.97,1725.0,-73.92741444827585,40.83319596551724,10452.0,44.0
227,bronx,Riverdale,3671 Hudson Manor Terrace,0.5,1.0,602.0,2200.0,-73.91583414864864,40.88792413513514,10463.0,50.0
228,bronx,west concourse,2401 3rd Avenue,2.0,2.0,1240.69,4972.0,-73.931714,40.808009,10451.0,44.0
229,bronx,Bedford Park,3106 Villa Avenue,4.0,1.0,1235.01,2195.0,-73.88764586440678,40.87461737288135,10468.0,52.0
230,bronx,West Concourse,425 Grand Concourse,3.0,1.0,1053.86,2676.0,-73.92807208163265,40.81711685714286,10451.0,44.0
231,bronx,West Concourse,425 Grand Concourse,2.0,1.0,845.42,2323.0,-73.92807208163265,40.81711685714286,10451.0,44.0
232,bronx,West Concourse,425 Grand Concourse,1.0,1.0,635.55,1926.0,-73.92807208163265,40.81711685714286,10451.0,44.0
233,bronx,West Concourse,425 Grand Concourse,0.5,1.0,524.22,1532.0,-73.92807208163265,40.81711685714286,10451.0,44.0
234,bronx,Mott Haven,101 Bruckner Boulevard,1.0,1.0,647.79,2300.0,-73.923106,40.805086,10454.0,44.0
235,bronx,Highbridge,1329 Inwood Avenue,4.0,1.0,1249.9,2650.0,-73.91993102564102,40.839033666666666,10452.0,44.0
236,bronx,Riverdale,5415 Netherland Avenue,1.0,1.0,641.24,2100.0,-73.9070674,40.9023617,10471.0,50.0
237,bronx,Mott Haven,101 Bruckner Boulevard,2.0,2.0,1185.99,3300.0,-73.923106,40.805086,10454.0,44.0
238,bronx,west concourse,2401 3rd Avenue,0.5,1.0,577.15,3150.0,-73.931714,40.808009,10451.0,44.0
239,bronx,west concourse,2401 3rd Avenue,1.0,1.0,677.69,3214.0,-73.931714,40.808009,10451.0,44.0
240,bronx,Mott Haven,101 Bruckner Boulevard,2.0,2.0,1182.71,3200.0,-73.923106,40.805086,10454.0,44.0
241,bronx,Riverdale,5800 Arlington Avenue,0.5,1.0,539.53,2000.0,-73.90575805145176,40.90799495,10471.0,50.0
242,bronx,west concourse,2401 3rd Avenue,0.5,1.0,579.47,3221.0,-73.931714,40.808009,10451.0,44.0
243,bronx,North New York,534 Jackson Avenue,2.0,1.0,834.04,1975.0,-73.90910988888889,40.81282155555555,10455.0,42.0
244,bronx,Mott Haven,101 Bruckner Boulevard,2.0,2.0,1185.99,3300.0,-73.923106,40.805086,10454.0,44.0
245,bronx,Mott Haven,101 Bruckner Boulevard,2.0,2.0,1182.71,3200.0,-73.923106,40.805086,10454.0,44.0
246,bronx,Country Club,1110 Stadium Avenue,1.0,1.0,641.24,2100.0,-73.8171793580432,40.83600307549551,10465.0,49.0
247,bronx,west concourse,2401 3rd Avenue,0.5,1.0,577.15,3150.0,-73.931714,40.808009,10451.0,44.0
248,bronx,west concourse,2401 3rd Avenue,0.5,1.0,580.62,3256.0,-73.931714,40.808009,10451.0,44.0
249,bronx,west concourse,2401 3rd Avenue,0.5,1.0,579.47,3221.0,-73.931714,40.808009,10451.0,44.0
250,bronx,Williamsbridge,831 Bartholdi Street,1.0,1.0,631.43,1800.0,-73.8616458,40.873829,10467.0,49.0
251,bronx,Concourse,853 Walton Avenue,2.0,1.0,838.95,2125.0,-73.92463425806451,40.82648819354839,10451.0,44.0
252,bronx,west concourse,2401 3rd Avenue,1.0,1.0,676.51,3178.0,-73.931714,40.808009,10451.0,44.0
253,bronx,Fordham,2482 Tiebout Avenue,3.0,1.0,1053.01,2650.0,-73.8949617368421,40.8614657368421,10458.0,46.0
254,bronx,Kingsbridge Heights,3340 Fort Independence Street,2.0,1.0,843.04,2250.0,-73.89939946277843,40.879580377588894,10463.0,50.0
256,bronx,west concourse,2401 3rd Avenue,0.5,1.0,439.0,2905.0,-73.931714,40.808009,10451.0,44.0
257,bronx,Crotona Park East,1169 Hoe Avenue,3.0,1.0,1059.52,2849.0,-73.89099858823529,40.82780388235294,10459.0,42.0
258,bronx,Crotona Park East,1169 Hoe Avenue,2.0,1.0,848.76,2425.0,-73.89099858823529,40.82780388235294,10459.0,42.0
259,bronx,North New York,438 East 134th Street,3.0,1.0,1038.29,2200.0,-73.9236174893617,40.80599125531915,10454.0,44.0
260,bronx,Riverdale,6049 Huxley Avenue,3.0,2.0,1600.0,4700.0,-73.89797566666667,40.90889055555556,10471.0,50.0
261,bronx,University Heights,2115 Davidson Avenue,1.0,1.0,625.0,1950.0,-73.9071395,40.8554815,10453.0,46.0
262,bronx,Bronxwood,3013 Barker Avenue,0.5,1.0,531.35,1750.0,-73.86940605882353,40.87003311764706,10467.0,49.0
263,bronx,Spuyten Duyvil,3225 Johnson Avenue,2.0,1.0,844.67,2300.0,-73.91049743708025,40.88376560923523,10463.0,50.0
264,bronx,Spuyten Duyvil,2287 Johnson Avenue,1.0,1.0,782.0,2500.0,-73.91935006233601,40.87818940526571,10463.0,50.0
265,bronx,Woodstock,497 East 156th Street,1.0,1.0,624.07,1575.0,-73.91229625,40.819931,10455.0,42.0
266,bronx,Melrose,837 Washington Avenue,1.0,1.0,675.0,1800.0,-73.91173297959183,40.82240281632653,10451.0,42.0
267,bronx,west concourse,224 East 135th Street,2.0,1.0,861.03,2800.0,-73.93019397368421,40.81042676315789,10451.0,44.0
268,bronx,Mott Haven,101 Bruckner Boulevard,1.0,2.0,998.91,3600.0,-73.923106,40.805086,10454.0,44.0
269,bronx,Mott Haven,101 Bruckner Boulevard,2.0,2.0,1185.99,3300.0,-73.923106,40.805086,10454.0,44.0
270,bronx,west concourse,2401 3rd Avenue,0.5,1.0,577.15,3150.0,-73.931714,40.808009,10451.0,44.0
271,bronx,Bronx,4614 Wilder Avenue,2.0,1.0,851.22,2500.0,-73.84593444444444,40.90359033333333,10466.0,49.0
272,bronx,Norwood,3071 Perry Avenue,1.0,1.0,626.52,1650.0,-73.88263021568628,40.87108223529412,10458.0,52.0
273,bronx,Spuyten Duyvil,3660 Oxford Avenue,1.0,1.0,1000.0,2400.0,-73.90864542865134,40.887731847154335,10463.0,50.0
274,bronx,Van Nest,1869 Wallace Avenue,3.0,1.0,1041.56,2300.0,-73.86423147368421,40.847633157894734,10462.0,49.0
275,bronx,Mott Haven,101 Bruckner Boulevard,1.0,1.0,647.79,2300.0,-73.923106,40.805086,10454.0,44.0
276,bronx,Mott Haven,101 Bruckner Boulevard,2.0,2.0,1182.71,3200.0,-73.923106,40.805086,10454.0,44.0
277,bronx,Fordham,2482 Tiebout Avenue,3.0,1.0,1053.01,2650.0,-73.8949617368421,40.8614657368421,10458.0,46.0
278,bronx,Tremont,253 East 181st Street,1.0,1.0,626.52,1650.0,-73.8999503,40.8543225,10457.0,46.0
279,bronx,Tremont,253 East 181st Street,0.5,1.0,524.09,1528.0,-73.8999503,40.8543225,10457.0,46.0
280,bronx,west concourse,2401 3rd Avenue,0.5,1.0,577.15,3150.0,-73.931714,40.808009,10451.0,44.0
281,bronx,west concourse,228 East 135th Street,2.0,1.0,861.03,2800.0,-73.93017744736842,40.81041402631579,10451.0,44.0
282,bronx,Bronxwood,2572 Bronxwood Avenue,3.0,1.0,1100.0,2400.0,-73.8613695,40.8653757,10469.0,49.0
283,bronx,Morrisania,790 East 169th Street,2.0,1.0,844.67,2300.0,-73.8990102,40.8299715,10456.0,42.0
284,bronx,west concourse,2401 3rd Avenue,1.0,1.0,677.69,3214.0,-73.931714,40.808009,10451.0,44.0
285,bronx,Fordham,55 East 196th Street,2.0,1.0,838.13,2100.0,-73.89472383333333,40.86873725,10468.0,52.0
286,bronx,Riverdale,640 West 237th Street,2.0,2.5,1600.0,5500.0,-73.912954,40.888221,10463.0,50.0
287,bronx,Kingsbridge,302 West 236th Street,2.0,1.0,900.0,2200.0,-73.9042203877551,40.88479826530612,10463.0,50.0
288,bronx,Highbridge,1329 Inwood Avenue,3.0,1.0,1056.28,2750.0,-73.91993102564102,40.839033666666666,10452.0,44.0
289,bronx,Highbridge,1329 Inwood Avenue,3.0,1.0,1048.79,2521.0,-73.91993102564102,40.839033666666666,10452.0,44.0
290,bronx,University Heights,1 West 182nd Street,1.0,1.0,624.88,1600.0,-73.9048757,40.8572328,10453.0,46.0
291,bronx,Mott Haven,25 Bruckner Boulevard,1.0,1.0,665.78,2850.0,-73.92854636363636,40.80737736363636,10454.0,44.0
292,bronx,Riverdale,6010 Spencer Avenue,3.0,3.0,1691.47,3300.0,-73.89901548979593,40.9079847755102,10471.0,50.0
293,bronx,west concourse,2401 3rd Avenue,0.5,1.0,575.35,3095.0,-73.931714,40.808009,10451.0,44.0
294,bronx,Crotona Park East,1169 Hoe Avenue,2.0,1.0,848.76,2425.0,-73.89099858823529,40.82780388235294,10459.0,42.0
295,bronx,west concourse,276 Grand Concourse,2.0,2.0,1194.16,3550.0,-73.9293465,40.81378782608696,10451.0,44.0
296,bronx,Spuyten Duyvil,3215 Arlington Avenue,1.0,1.0,800.0,1995.0,-73.91250128571428,40.88440171428572,10463.0,50.0
297,bronx,Fieldston,351 West 245th Street,5.0,3.5,3754.0,9500.0,-73.9031328,40.8922607,10471.0,50.0
298,bronx,west concourse,2401 3rd Avenue,1.0,1.0,677.69,3214.0,-73.931714,40.808009,10451.0,44.0
299,bronx,Pelham Parkway,2197 Cruger Avenue,2.0,1.0,843.04,2250.0,-73.8667628,40.8562305,10462.0,49.0
300,bronx,Pelham Parkway,2199 Cruger Avenue,2.0,1.0,839.76,2150.0,-73.8667555,40.8564817,10462.0,49.0
301,bronx,Spuyten Duyvil,530 West 236th Street,2.0,2.0,1184.35,3250.0,-73.90814375510205,40.88633371428571,10463.0,50.0
302,bronx,Fordham,2420 Creston Avenue,2.0,1.0,821.77,1600.0,-73.89902208108109,40.86090721621621,10468.0,46.0
303,bronx,Country Club,1130 Stadium Avenue,1.0,1.0,634.54,1895.0,-73.8168099,40.8363486,10465.0,49.0
304,bronx,Laconia,2546 Laconia Avenue,3.0,1.0,1054.65,2700.0,-73.85573150505051,40.86363071717172,10469.0,49.0
305,bronx,Edenwald,4040 Grace Avenue,0.5,1.0,547.71,2250.0,-73.8447106122449,40.89093685714285,10466.0,49.0
306,bronx,Spuyten Duyvil,3215 Arlington Avenue,2.0,1.0,1020.0,2450.0,-73.91250128571428,40.88440171428572,10463.0,50.0
307,bronx,Concourse,1521 Sheridan Avenue,0.5,1.0,510.0,1500.0,-73.9112533,40.8415456,10457.0,44.0
309,bronx,west concourse,276 Grand Concourse,0.5,1.0,544.93,2165.0,-73.9293465,40.81378782608696,10451.0,44.0
310,bronx,Concourse,1711 Morris Avenue,1.0,1.0,700.0,1750.0,-73.909571,40.8444864,10457.0,44.0
311,bronx,Kingsbridge Heights,3880 Orloff Avenue,2.0,1.0,852.59,2542.0,-73.89599793913995,40.88414972160936,10463.0,50.0
312,bronx,west concourse,2401 3rd Avenue,0.5,1.0,439.0,2905.0,-73.931714,40.808009,10451.0,44.0
313,bronx,Kingsbridge Heights,3880 Orloff Avenue,2.0,1.0,846.14,2345.0,-73.89599793913995,40.88414972160936,10463.0,50.0
314,bronx,Castle Hill,2068 Story Avenue,2.0,1.0,825.04,1700.0,-73.85356785714285,40.824828653061225,10473.0,43.0
315,bronx,Soundview,1772 East 172nd Street,1.0,1.0,629.46,1740.0,-73.8676978,40.8326989,10472.0,43.0
316,bronx,Soundview,1772 East 172nd Street,1.0,1.0,617.75,1382.0,-73.8676978,40.8326989,10472.0,43.0
317,bronx,North New York,454 East 138th Street,1.0,1.0,633.65,1868.0,-73.92119206976744,40.80829648837209,10454.0,44.0
318,bronx,Fordham,2825 Grand Concourse,1.0,1.0,631.43,1800.0,-73.89124976610618,40.869634430904135,10458.0,52.0
319,bronx,Mott Haven,39 Bruckner Boulevard,2.0,1.0,850.0,2350.0,-73.9272025,40.8068853,10454.0,44.0
320,bronx,Concourse,1132 Grant Avenue,3.0,1.0,1250.0,2550.0,-73.91603346153846,40.831584,10456.0,44.0
321,bronx,Mott Haven,25 Bruckner Boulevard,2.0,2.0,1197.44,3650.0,-73.92854636363636,40.80737736363636,10454.0,44.0
322,bronx,Fordham,2482 Tiebout Avenue,3.0,1.0,1053.01,2650.0,-73.8949617368421,40.8614657368421,10458.0,46.0
323,bronx,west concourse,2401 3rd Avenue,2.0,2.0,1234.93,4796.0,-73.931714,40.808009,10451.0,44.0
324,bronx,Riverdale,3461 Irwin Avenue,3.0,1.0,1331.0,2695.0,-73.90571447727272,40.884511386363634,10463.0,50.0
325,bronx,Riverdale,6020 Huxley Avenue,3.0,1.0,1000.0,2700.0,-73.89794827272726,40.90815563636363,10471.0,50.0
326,bronx,west concourse,2401 3rd Avenue,1.0,1.0,676.51,3178.0,-73.931714,40.808009,10451.0,44.0
327,bronx,University Heights,2170 University Avenue,0.5,1.0,523.01,1495.0,-73.909629,40.857403,10453.0,46.0
328,bronx,Laconia,1744 Givan Avenue,3.0,1.0,1000.0,2200.0,-73.842159,40.875585,10469.0,49.0
329,bronx,Laconia,1744 Givan Avenue,3.0,1.0,1000.0,2200.0,-73.842159,40.875585,10469.0,49.0
330,bronx,Tremont,2065 Ryer Avenue,2.0,1.0,719.0,2217.0,-73.9012094,40.8523615,10457.0,46.0
331,bronx,Tremont,2065 Ryer Avenue,1.0,1.0,420.0,1945.0,-73.9012094,40.8523615,10457.0,46.0
332,bronx,Riverdale,3333 Henry Hudson Parkway,1.0,1.0,648.0,2500.0,-73.91344,40.8859933,10463.0,50.0
333,bronx,Tremont,2065 Ryer Avenue,0.5,1.0,274.0,1900.0,-73.9012094,40.8523615,10457.0,46.0
334,bronx,Spuyten Duyvil,3103 Fairfield Avenue,2.0,1.5,895.0,2350.0,-73.9142112,40.883809,10463.0,50.0
335,bronx,Parkchester,1847 Cross Bronx Expressway,2.0,1.0,843.04,2250.0,-73.86429384375,40.83398271875,10472.0,43.0
336,bronx,west concourse,276 Grand Concourse,2.0,2.0,1190.89,3450.0,-73.9293465,40.81378782608696,10451.0,44.0
337,bronx,Riverdale,3333 Henry Hudson Parkway,0.5,2.0,943.0,4900.0,-73.91344,40.8859933,10463.0,50.0
338,bronx,Pelham Parkway,2198 Cruger Avenue,2.0,1.0,841.4,2200.0,-73.8665085,40.8563031,10462.0,49.0
339,bronx,Spuyten Duyvil,3240 Netherland Avenue,1.0,1.0,644.51,2200.0,-73.91137347651006,40.88415032885906,10463.0,50.0
340,bronx,west concourse,2401 3rd Avenue,0.5,1.0,580.62,3256.0,-73.931714,40.808009,10451.0,44.0
341,bronx,Bronxwood,3013 Barker Avenue,2.0,1.0,846.31,2350.0,-73.86940605882353,40.87003311764706,10467.0,49.0
342,bronx,Mt. Hope,1755 Clay Avenue,1.0,1.0,626.52,1650.0,-73.90489257142858,40.8455329047619,10457.0,46.0
343,bronx,Riverdale,3707 Blackstone Avenue,3.0,2.0,1535.0,5000.0,-73.9117933,40.8886924,10463.0,50.0
344,bronx,Riverdale,3660 Waldo Avenue,3.0,1.0,1080.78,3499.0,-73.90479074030357,40.886397401808345,10463.0,50.0
345,bronx,Kingsbridge,4582 Manhattan College Parkway,1.0,1.0,700.0,2091.0,-73.90029367462915,40.88919814253906,10471.0,50.0
346,bronx,Riverdale,5535 Netherland Avenue,3.0,1.0,1071.0,3200.0,-73.9068801,40.9034016,10471.0,50.0
347,bronx,Crotona Park East,1326 Chisholm Street,1.0,1.0,634.7,1900.0,-73.89556847826087,40.83093482608696,10459.0,42.0
348,bronx,Fordham,2661 Marion Avenue,0.5,1.0,532.98,1800.0,-73.89065542424242,40.864872727272726,10458.0,52.0
349,bronx,Pelham Bay,2860 Buhre Avenue,1.0,1.0,634.7,1900.0,-73.83370757894737,40.84721557894736,10461.0,49.0
350,bronx,west concourse,228 East 135th Street,1.0,1.0,645.99,2245.0,-73.93017744736842,40.81041402631579,10451.0,44.0
352,bronx,Bronxwood,3013 Barker Avenue,2.0,1.0,854.32,2595.0,-73.86940605882353,40.87003311764706,10467.0,49.0
353,bronx,Fordham,2585 Grand Concourse,2.0,1.0,834.04,1975.0,-73.89573835714286,40.86384367346939,10458.0,52.0
354,bronx,west concourse,2401 3rd Avenue,2.0,2.0,1240.19,4957.0,-73.931714,40.808009,10451.0,44.0
355,bronx,Bronxwood,655 Pelham Parkway North,1.0,1.0,624.88,1600.0,-73.8690629,40.8578994,10467.0,49.0
356,bronx,Van Nest,1921 Holland Avenue,2.0,1.0,900.0,2100.0,-73.86546517241379,40.8484395,10462.0,49.0
358,bronx,Parkchester,1510 Archer Road,1.0,1.0,684.0,1600.0,-73.86280967057813,40.83824262718613,10462.0,43.0
359,bronx,Riverdale,3660 Waldo Avenue,3.0,2.0,1389.38,3499.0,-73.90479074030357,40.886397401808345,10463.0,50.0
360,bronx,Riverdale,3660 Waldo Avenue,1.0,1.0,636.34,1950.0,-73.90479074030357,40.886397401808345,10463.0,50.0
361,bronx,Riverdale,3660 Waldo Avenue,2.0,1.0,846.31,2350.0,-73.90479074030357,40.886397401808345,10463.0,50.0
362,bronx,Riverdale,3660 Waldo Avenue,2.0,1.0,849.58,2450.0,-73.90479074030357,40.886397401808345,10463.0,50.0
363,bronx,Kingsbridge,3411 Corlear Avenue,3.0,1.0,1000.0,2500.0,-73.90485672727273,40.88308747474748,10463.0,50.0
364,bronx,west concourse,2401 3rd Avenue,1.0,1.0,688.61,3548.0,-73.931714,40.808009,10451.0,44.0
365,bronx,west concourse,2401 3rd Avenue,0.5,1.0,580.62,3256.0,-73.931714,40.808009,10451.0,44.0
366,bronx,Baychester,2945 Wickham Avenue,4.0,3.0,1911.09,3995.0,-73.8378765510204,40.86985524489796,10469.0,49.0
367,bronx,Bronxwood,3015 Matthews Avenue,3.0,1.0,1049.74,2550.0,-73.86254514285714,40.86995971428571,10467.0,49.0
368,bronx,west concourse,2401 3rd Avenue,1.0,1.0,676.51,3178.0,-73.931714,40.808009,10451.0,44.0
369,bronx,Riverdale,3820 Waldo Avenue,3.0,1.0,1057.92,2800.0,-73.9035146,40.887669,10463.0,50.0
370,bronx,Riverdale,3824 Waldo Avenue,2.0,1.0,839.76,2150.0,-73.90360252500001,40.887641,10463.0,50.0
371,bronx,Riverdale,3824 Waldo Avenue,3.0,1.0,1057.92,2800.0,-73.90360252500001,40.887641,10463.0,50.0
372,bronx,Spuyten Duyvil,530 West 236th Street,2.0,1.0,1250.0,2800.0,-73.90814375510205,40.88633371428571,10463.0,50.0
373,bronx,Riverdale,6015 Spencer Avenue,3.0,2.0,1800.0,3200.0,-73.89921028571429,40.908085285714286,10471.0,50.0
374,bronx,Woodstock,959 East 156th Street,3.0,1.0,1041.56,2300.0,-73.89967216666668,40.816247833333335,10455.0,42.0
375,bronx,Norwood,3103 Webster Avenue,2.0,1.0,832.4,1925.0,-73.8771563,40.8711086,10467.0,52.0
376,bronx,Bedford Park,3224 Grand Concourse,1.0,1.0,626.52,1650.0,-73.8847922,40.8776664,10458.0,52.0
377,bronx,Fordham,2725 Morris Avenue,1.0,1.0,620.8,1475.0,-73.89546263636363,40.86827618181818,10468.0,52.0
378,bronx,Hunts Point,657 Manida Street,3.0,2.0,1368.15,2850.0,-73.88817171428572,40.81321128571429,10474.0,43.0
379,bronx,Spuyten Duyvil,2600 Netherland Avenue,1.0,1.5,880.0,2545.0,-73.916036,40.878462,10463.0,50.0
380,bronx,Spuyten Duyvil,3128 Henry Hudson Parkway East,2.0,2.0,1182.71,3200.0,-73.91492353979449,40.88382883419328,10463.0,50.0
381,bronx,Spuyten Duyvil,511 West 235th Street,1.0,1.0,1015.0,2000.0,-73.9075672,40.8853667,10463.0,50.0
382,bronx,Mott Haven,2401 3rd Avenue,0.5,1.0,572.28,3001.0,-73.931714,40.808009,10451.0,44.0
383,bronx,North New York,534 Jackson Avenue,2.0,1.0,844.67,2300.0,-73.90910988888889,40.81282155555555,10455.0,42.0
384,bronx,Tremont,219 Echo Place,0.5,1.0,522.35,1475.0,-73.90488063265306,40.84986075510204,10457.0,46.0
385,bronx,Woodlawn,4282 Katonah Avenue,2.0,1.0,834.86,2000.0,-73.86714733333334,40.897929,10470.0,50.0
386,bronx,Morrisania,1117 Forest Avenue,2.0,1.5,690.0,1800.0,-73.90232466666667,40.82782380555556,10456.0,42.0
387,bronx,Fordham,2330 Valentine Avenue,1.0,1.0,627.34,1675.0,-73.89772166666667,40.85762,10458.0,46.0
388,bronx,Soundview,1211 Wheeler Avenue,3.0,1.0,1035.02,2100.0,-73.88030118367347,40.8288517755102,10472.0,43.0
389,bronx,Riverdale,3824 Waldo Avenue,2.0,1.0,839.76,2150.0,-73.90360252500001,40.887641,10463.0,50.0
390,bronx,Concourse,1500 Grand Concourse,0.5,1.0,519.9,1400.0,-73.9122484,40.8412087,10457.0,44.0
391,bronx,University Heights,2471 Grand Avenue,2.0,1.0,834.86,2000.0,-73.90289631818182,40.86346186363636,10468.0,52.0
392,bronx,Riverdale,3210 Riverdale Avenue,1.0,1.0,794.0,2300.0,-73.908409,40.882555,10463.0,50.0
393,bronx,Spuyten Duyvil,530 West 236th Street,3.0,2.0,1379.44,3195.0,-73.90814375510205,40.88633371428571,10463.0,50.0
394,bronx,Morris Heights,2004 Davidson Avenue,2.0,1.0,839.76,2150.0,-73.90887085507246,40.85326715942029,10453.0,46.0
395,bronx,Fordham,2592 Creston Avenue,3.0,1.0,1041.56,2300.0,-73.89656228571428,40.86487857142857,10468.0,52.0
396,bronx,Mott Haven,2401 3rd Avenue,2.0,2.0,1233.23,4744.0,-73.931714,40.808009,10451.0,44.0
397,bronx,Bedford Park,2980 Briggs Avenue,2.0,1.5,987.52,1950.0,-73.8851035,40.871450375,10458.0,52.0
398,bronx,Spuyten Duyvil,735 Kappock Street,1.0,1.0,637.97,2000.0,-73.91963808882464,40.88198628093224,10463.0,50.0
399,bronx,Pelham Parkway,2198 Cruger Avenue,2.0,1.0,838.95,2125.0,-73.8665085,40.8563031,10462.0,49.0
400,bronx,Norwood,3230 Steuben Avenue,1.0,1.0,628.16,1700.0,-73.88159695918367,40.87738642857143,10467.0,52.0
401,bronx,Crotona Park East,1409 Bryant Avenue,2.0,1.5,1007.15,2550.0,-73.88893207692307,40.830202538461535,10459.0,42.0
402,bronx,Spuyten Duyvil,500 West 235th Street,2.0,1.0,847.94,2400.0,-73.907409,40.885105,10463.0,50.0
403,bronx,Concourse,975 Sherman Avenue,3.0,1.0,1048.1,2500.0,-73.91901506451613,40.82861761290322,10456.0,44.0
404,bronx,Concourse,975 Sherman Avenue,1.0,1.0,623.25,1550.0,-73.91901506451613,40.82861761290322,10456.0,44.0
405,bronx,Riverdale,6555 Broadway,1.0,1.0,629.79,1750.0,-73.896748,40.9070441,10471.0,50.0
406,bronx,Hunts Point,657 Manida Street,3.0,2.0,1368.15,2850.0,-73.88817171428572,40.81321128571429,10474.0,43.0
407,bronx,Mott Haven,2401 3rd Avenue,0.5,1.0,572.28,3001.0,-73.931714,40.808009,10451.0,44.0
408,bronx,Spuyten Duyvil,3615 Oxford Avenue,0.5,1.0,543.65,2126.0,-73.908694875,40.886906875,10463.0,50.0
409,bronx,Riverdale,630 West 246th Street,1.0,1.0,644.35,2195.0,-73.91121795238095,40.89229771428572,10471.0,50.0
410,bronx,Mott Haven,2401 3rd Avenue,0.5,1.0,568.81,2895.0,-73.931714,40.808009,10451.0,44.0
411,bronx,Kingsbridge,4578 Manhattan College Parkway,1.0,1.0,800.0,1650.0,-73.90039479160346,40.88912028721612,10471.0,50.0
412,bronx,Pelham Parkway,2160 Bronx Park East,1.0,1.0,1000.0,1900.0,-73.8687742755102,40.852247428571424,10462.0,49.0
413,bronx,Crotona Park East,1821 Trafalgar Place,2.0,1.0,831.55,1899.0,-73.88740289795919,40.83991042857143,10460.0,48.0
414,bronx,Parkchester,2013 Benedict Avenue,2.0,1.0,800.0,1850.0,-73.85742240816326,40.834450122448985,10462.0,43.0
415,bronx,Wakefield,759 East 235th Street,3.0,2.0,1356.7,2500.0,-73.85451033333334,40.894311,10466.0,49.0
416,bronx,Mott Haven,101 Bruckner Boulevard,2.0,2.0,1179.44,3100.0,-73.923106,40.805086,10454.0,44.0
417,bronx,Mott Haven,101 Bruckner Boulevard,2.0,2.0,1185.99,3300.0,-73.923106,40.805086,10454.0,44.0
418,bronx,Edenwald,13 Harper Court,3.0,2.0,1356.7,2500.0,-73.83466262162163,40.88503854054054,10466.0,49.0
419,bronx,Concourse,1254 Sherman Avenue,3.0,1.0,1043.19,2350.0,-73.9153062857143,40.83458132653061,10456.0,44.0
420,bronx,Mott Haven,2401 3rd Avenue,3.0,2.0,1475.59,6134.0,-73.931714,40.808009,10451.0,44.0
421,bronx,west concourse,224 East 135th Street,2.0,1.0,880.27,3388.0,-73.93019397368421,40.81042676315789,10451.0,44.0
422,bronx,Concourse,1254 Sherman Avenue,0.5,1.0,526.44,1600.0,-73.9153062857143,40.83458132653061,10456.0,44.0
423,bronx,Tremont,2080 Grand Concourse,0.5,1.0,526.44,1600.0,-73.9022887,40.8535481,10457.0,46.0
424,bronx,Mott Haven,2401 3rd Avenue,1.0,1.0,673.4,3083.0,-73.931714,40.808009,10451.0,44.0
425,bronx,Tremont,2090 Grand Concourse,1.0,1.0,626.52,1650.0,-73.9021814,40.8536818,10457.0,46.0
426,bronx,Fordham,2765 Briggs Avenue,1.0,1.0,800.0,1375.0,-73.89059770967742,40.86769393548387,10458.0,52.0
427,bronx,Concourse,1200 College Avenue,0.5,1.0,517.44,1325.0,-73.9135,40.832386,10456.0,44.0
428,bronx,North New York,420 East 148th Street,2.0,1.0,914.0,1995.0,-73.91728004255319,40.81489640425532,10455.0,44.0
429,bronx,Bedford Park,3175 Grand Concourse,0.5,1.0,402.0,1295.0,-73.88554329428828,40.87611739618093,10458.0,52.0
430,bronx,University Heights,2265 University Avenue,2.0,1.0,843.04,2250.0,-73.90745559210526,40.86010392105263,10468.0,52.0
431,bronx,University Heights,2265 University Avenue,1.0,1.0,631.4,1799.0,-73.90745559210526,40.86010392105263,10468.0,52.0
432,bronx,Concourse,1520 Sheridan Avenue,2.0,1.0,834.69,1995.0,-73.91127166843846,40.84091285835229,10457.0,44.0
433,bronx,Bronxwood,655 Pelham Parkway North,1.0,1.0,626.52,1650.0,-73.8690629,40.8578994,10467.0,49.0
434,bronx,Hunts Point,657 Manida Street,1.0,1.0,636.5,1955.0,-73.88817171428572,40.81321128571429,10474.0,43.0
435,bronx,Mott Haven,2401 3rd Avenue,0.5,1.0,572.28,3001.0,-73.931714,40.808009,10451.0,44.0
436,bronx,Concourse,1555 Grand Concourse,1.0,1.0,626.52,1650.0,-73.91204014285715,40.842004061224486,10457.0,44.0
437,bronx,Kingsbridge,3025 Godwin Terrace,1.0,1.0,624.88,1600.0,-73.90653685714285,40.87854306122449,10463.0,50.0
438,bronx,Mott Haven,2401 3rd Avenue,1.0,1.0,685.51,3453.0,-73.931714,40.808009,10451.0,44.0
439,bronx,Riverdale,6629 Broadway,1.0,1.0,631.43,1800.0,-73.8966952320012,40.909215360051206,10471.0,50.0
440,bronx,Riverdale,452 West 261st Street,3.0,2.0,1373.06,3000.0,-73.90249558333333,40.909906875,10471.0,50.0
441,bronx,Kingsbridge,3616 Corlear Avenue,2.0,1.0,900.0,2400.0,-73.90301494949495,40.884429828282826,10463.0,50.0
442,bronx,Schuylerville,1534 Hollywood Avenue,3.0,1.0,1300.0,2695.0,-73.82696734581555,40.84162806416252,10461.0,49.0
443,bronx,Concourse,1348 Sheridan Avenue,1.0,1.0,624.07,1575.0,-73.9132890263158,40.83748981578948,10456.0,44.0
444,bronx,East Tremont,2004 Crotona Avenue,2.0,1.0,841.4,2200.0,-73.88976466666666,40.84687853333334,10457.0,48.0
445,bronx,East Tremont,2004 Crotona Avenue,3.0,2.0,1358.34,2550.0,-73.88976466666666,40.84687853333334,10457.0,48.0
446,bronx,west concourse,25 Bruckner Boulevard,2.0,1.0,862.67,2850.0,-73.92854636363636,40.80737736363636,10454.0,44.0
447,bronx,Melrose,726 Courtlandt Avenue,2.0,1.0,834.69,1995.0,-73.9174695,40.820918,10451.0,44.0
448,bronx,west concourse,228 East 135th Street,2.0,2.0,1190.21,3429.0,-73.93017744736842,40.81041402631579,10451.0,44.0
449,bronx,Riverdale,3210 Riverdale Avenue,1.0,1.0,794.0,2300.0,-73.908409,40.882555,10463.0,50.0
450,bronx,Norwood,51 West Mosholu Parkway North,3.0,1.0,1041.79,2307.0,-73.88480033645827,40.88233264111887,10467.0,52.0
451,bronx,Highbridge,1344 University Avenue,1.0,1.0,626.52,1650.0,-73.92663,40.841347,10452.0,44.0
452,bronx,Mott Haven,2401 3rd Avenue,2.0,2.0,1228.87,4611.0,-73.931714,40.808009,10451.0,44.0
453,bronx,Pelham Parkway,2198 Cruger Avenue,2.0,1.0,839.76,2150.0,-73.8665085,40.8563031,10462.0,49.0
454,bronx,Kingsbridge Heights,147 West 230th Street,1.0,1.0,628.16,1700.0,-73.9034221,40.8760328,10463.0,50.0
455,bronx,Bedford Park,225 East 202nd Street,1.0,1.0,650.86,2394.0,-73.88591473684211,40.87317094736842,10458.0,52.0
456,bronx,Fordham,2721 Morris Avenue,2.0,1.0,841.4,2200.0,-73.8955164090909,40.868208045454544,10468.0,52.0
457,bronx,Crotona Park East,1821 Trafalgar Place,3.0,2.0,1373.03,2999.0,-73.88740289795919,40.83991042857143,10460.0,48.0
458,bronx,Riverdale,3333 Henry Hudson Parkway,1.0,1.0,885.0,2650.0,-73.91344,40.8859933,10463.0,50.0
459,bronx,Riverdale,3333 Henry Hudson Parkway,1.0,1.0,648.0,2195.0,-73.91344,40.8859933,10463.0,50.0
460,bronx,Kingsbridge Heights,3000 Bailey Avenue,1.0,1.0,628.16,1700.0,-73.9037084,40.8762471,10463.0,50.0
461,bronx,Kingsbridge,3120 Corlear Avenue,2.0,1.0,840.58,2175.0,-73.90725973469388,40.88064089795918,10463.0,50.0
462,bronx,west concourse,224 East 135th Street,1.0,1.0,643.21,2160.0,-73.93019397368421,40.81042676315789,10451.0,44.0
463,bronx,west concourse,228 East 135th Street,2.0,1.0,853.18,2560.0,-73.93017744736842,40.81041402631579,10451.0,44.0
464,bronx,Bedford Park,185 East 206th Street,1.0,1.0,620.8,1475.0,-73.88448995238095,40.87594966666666,10458.0,52.0
465,bronx,Pelham Parkway,762 Brady Avenue,3.0,2.0,1339.53,1975.0,-73.8662855,40.8524665,10462.0,49.0
466,bronx,Mott Haven,2401 3rd Avenue,1.0,1.0,673.4,3083.0,-73.931714,40.808009,10451.0,44.0
467,bronx,Bronxwood,2215 Cruger Avenue,1.0,1.0,624.88,1600.0,-73.86668028571428,40.858192571428575,10467.0,49.0
468,bronx,Spuyten Duyvil,3128 Henry Hudson Parkway East,1.0,1.0,644.35,2195.0,-73.91492353979449,40.88382883419328,10463.0,50.0
469,bronx,Hunts Point,657 Manida Street,3.0,2.0,1368.15,2850.0,-73.88817171428572,40.81321128571429,10474.0,43.0
470,bronx,Hunts Point,657 Manida Street,1.0,1.0,636.5,1955.0,-73.88817171428572,40.81321128571429,10474.0,43.0
471,bronx,University Heights,2721 Heath Avenue,2.0,1.0,838.13,2100.0,-73.90551767741935,40.87138467741936,10463.0,52.0
472,bronx,North New York,596 Beech Terrace,3.0,1.5,1222.03,3100.0,-73.91414201574675,40.80947338626953,10454.0,42.0
473,bronx,Mott Haven,101 Bruckner Boulevard,2.0,2.0,1184.35,3250.0,-73.923106,40.805086,10454.0,44.0
474,bronx,Mott Haven,101 Bruckner Boulevard,1.0,1.0,647.79,2300.0,-73.923106,40.805086,10454.0,44.0
475,bronx,Woodstock,643 Southern Boulevard,3.0,1.0,1200.0,2000.0,-73.90100923529411,40.81310629411765,10455.0,42.0
476,bronx,west concourse,224 East 135th Street,1.0,1.0,643.21,2160.0,-73.93019397368421,40.81042676315789,10451.0,44.0
477,bronx,Mt. Hope,1770 Grand Concourse,1.0,1.0,717.0,1999.0,-73.90939336111111,40.84672380555556,10453.0,46.0
478,bronx,Spuyten Duyvil,530 West 236th Street,2.0,1.0,1250.0,2800.0,-73.90814375510205,40.88633371428571,10463.0,50.0
479,bronx,Crotona Park East,1390 Prospect Avenue,2.0,1.0,838.13,2100.0,-73.89671466666667,40.83137166666667,10459.0,42.0
480,bronx,Mott Haven,2401 3rd Avenue,3.0,2.0,1475.59,6134.0,-73.931714,40.808009,10451.0,44.0
481,bronx,Riverdale,5900 Arlington Avenue,1.0,1.0,700.0,2100.0,-73.906375,40.908581,10471.0,50.0
483,bronx,Bronxwood,660 Thwaites Place,1.0,1.0,624.88,1600.0,-73.8692489,40.8587429,10467.0,49.0
484,bronx,Concourse,930 Sheridan Avenue,0.5,1.0,542.0,1499.0,-73.9203163,40.8276079,10451.0,44.0
485,bronx,Concourse,930 Sheridan Avenue,1.0,1.0,669.0,1899.0,-73.9203163,40.8276079,10451.0,44.0
486,bronx,Bedford Park,271 East 198th Street,3.0,1.0,2000.0,2500.0,-73.88878531578948,40.86895278947369,10458.0,52.0
487,bronx,Williamsbridge,3804 Bronx Boulevard,3.0,2.0,1356.67,2499.0,-73.8660144954649,40.88462652641886,10467.0,52.0
489,bronx,Mt. Hope,1775 Clay Avenue,0.5,1.0,521.53,1450.0,-73.90484753846154,40.846049692307695,10457.0,46.0
490,bronx,Hunts Point,657 Manida Street,3.0,2.0,1368.15,2850.0,-73.88817171428572,40.81321128571429,10474.0,43.0
491,bronx,Riverdale,3210 Riverdale Avenue,1.0,1.0,794.0,2300.0,-73.908409,40.882555,10463.0,50.0
492,bronx,Fordham,2835 Bainbridge Avenue,1.0,1.0,621.61,1500.0,-73.88855936842106,40.86846610526316,10458.0,52.0
493,bronx,Spuyten Duyvil,3300 Netherland Avenue,2.0,2.0,1100.0,2650.0,-73.91125569127516,40.88450932214765,10463.0,50.0
494,bronx,west concourse,228 East 135th Street,0.5,1.0,534.62,1850.0,-73.93017744736842,40.81041402631579,10451.0,44.0
495,bronx,Mott Haven,101 Bruckner Boulevard,1.0,1.0,647.79,2300.0,-73.923106,40.805086,10454.0,44.0
496,bronx,Bronxwood,2713 Holland Avenue,3.0,1.0,1035.02,2100.0,-73.86550081818181,40.86572569696969,10467.0,49.0
497,bronx,Mott Haven,101 Bruckner Boulevard,2.0,2.0,1167.99,2750.0,-73.923106,40.805086,10454.0,44.0
498,bronx,Bronxwood,2713 Holland Avenue,2.0,1.0,831.59,1900.0,-73.86550081818181,40.86572569696969,10467.0,49.0
499,bronx,Fordham,355 East 187th Street,1.0,1.0,623.25,1550.0,-73.8949941,40.859724,10458.0,46.0
500,bronx,Kingsbridge Heights,3971 Gouverneur Avenue,2.0,1.0,847.78,2395.0,-73.89201828282827,40.88346417171717,10463.0,50.0
501,bronx,Mott Haven,225 East 138th Street,1.0,1.0,660.71,2695.0,-73.92829927272727,40.81197181818182,10451.0,44.0
502,bronx,Riverdale,3333 Henry Hudson Parkway,1.0,1.0,1102.0,2975.0,-73.91344,40.8859933,10463.0,50.0
503,bronx,West Farms,926 Bronx Park South,0.5,1.0,521.53,1450.0,-73.88026447368422,40.8459407368421,10460.0,48.0
504,bronx,west concourse,224 East 135th Street,2.0,1.0,851.22,2500.0,-73.93019397368421,40.81042676315789,10451.0,44.0
505,bronx,Mott Haven,2401 3rd Avenue,0.5,1.0,570.05,2933.0,-73.931714,40.808009,10451.0,44.0
506,bronx,Crotona Park East,1821 Trafalgar Place,2.0,2.0,1140.15,1899.0,-73.88740289795919,40.83991042857143,10460.0,48.0
507,bronx,west concourse,329 East 132nd Street,0.5,1.0,528.08,1650.0,-73.92747557142857,40.806042857142856,10454.0,44.0
508,bronx,west concourse,228 East 135th Street,1.0,1.0,646.35,2256.0,-73.93017744736842,40.81041402631579,10451.0,44.0
509,bronx,west concourse,329 East 132nd Street,2.0,2.0,1176.17,3000.0,-73.92747557142857,40.806042857142856,10454.0,44.0
510,bronx,west concourse,329 East 132nd Street,1.0,1.0,646.15,2250.0,-73.92747557142857,40.806042857142856,10454.0,44.0
511,bronx,west concourse,329 East 132nd Street,1.0,1.0,649.42,2350.0,-73.92747557142857,40.806042857142856,10454.0,44.0
512,bronx,Melrose,811 Elton Avenue,2.0,1.0,841.24,2195.0,-73.913146,40.822155,10451.0,42.0
513,bronx,Riverdale,3707 Blackstone Avenue,1.0,1.0,730.0,3300.0,-73.9117933,40.8886924,10463.0,50.0
514,bronx,Fordham,2301 Creston Avenue,1.0,1.0,622.43,1525.0,-73.9009188,40.8580251,10468.0,46.0
515,bronx,Tremont,2095 Grand Concourse,1.0,1.0,626.52,1650.0,-73.902149375,40.85381375,10457.0,46.0
516,bronx,City Island,152B Tier Street,3.0,1.5,1218.76,3000.0,-73.7860039358139,40.84810595,10464.0,45.0
517,bronx,west concourse,224 East 135th Street,2.0,1.0,880.27,3388.0,-73.93019397368421,40.81042676315789,10451.0,44.0
518,bronx,Riverdale,3210 Riverdale Avenue,1.0,1.0,794.0,2300.0,-73.908409,40.882555,10463.0,50.0
519,bronx,Hunts Point,657 Manida Street,3.0,2.0,1368.15,2850.0,-73.88817171428572,40.81321128571429,10474.0,43.0
520,bronx,University Heights,2265 University Avenue,2.0,1.0,841.4,2200.0,-73.90745559210526,40.86010392105263,10468.0,52.0
521,bronx,Fordham,2308 Morris Avenue,3.0,1.0,1059.55,2850.0,-73.90165559259259,40.85832474074074,10468.0,46.0
522,bronx,Mott Haven,2401 3rd Avenue,0.5,1.0,572.28,3001.0,-73.931714,40.808009,10451.0,44.0
523,bronx,East Tremont,822 East 178th Street,3.0,2.0,1350.16,2300.0,-73.88687621875,40.84436421875,10460.0,48.0
524,bronx,Spuyten Duyvil,511 West 235th Street,1.0,1.0,1015.0,1950.0,-73.9075672,40.8853667,10463.0,50.0
525,bronx,Mott Haven,112 Lincoln Avenue,2.0,1.0,874.12,3200.0,-73.9292425,40.8077952,10454.0,44.0
527,bronx,University Heights,2265 University Avenue,3.0,2.0,1359.97,2600.0,-73.90745559210526,40.86010392105263,10468.0,52.0
528,bronx,Fordham,2718 Morris Avenue,1.0,1.0,621.45,1495.0,-73.895396625,40.868038875,10468.0,52.0
529,bronx,Kingsbridge Heights,3880 Orloff Avenue,1.0,1.0,680.34,3295.0,-73.89599793913995,40.88414972160936,10463.0,50.0
530,bronx,Fordham,20 East 190th Street,1.0,1.0,619.16,1425.0,-73.8995147,40.8633549,10468.0,52.0
531,bronx,Riverdale,4901 Henry Hudson Parkway West,2.0,1.5,1021.87,3000.0,-73.90891279690675,40.896541,10471.0,50.0
532,bronx,Mott Haven,2401 3rd Avenue,3.0,2.0,1475.59,6134.0,-73.931714,40.808009,10451.0,44.0
533,bronx,Mt. Hope,1770 Grand Concourse,1.0,1.0,740.0,1999.0,-73.90939336111111,40.84672380555556,10453.0,46.0
534,bronx,Woodlawn,4345 Webster Avenue,1.0,1.0,624.72,1595.0,-73.86201067269637,40.89995041015906,10470.0,50.0
535,bronx,Woodlawn,4345 Webster Avenue,0.5,1.0,517.77,1335.0,-73.86201067269637,40.89995041015906,10470.0,50.0
536,bronx,west concourse,228 East 135th Street,1.0,1.0,646.35,2256.0,-73.93017744736842,40.81041402631579,10451.0,44.0
537,bronx,Kingsbridge Heights,2888 Heath Avenue,2.0,1.0,950.0,2095.0,-73.90346489705883,40.87463982352941,10463.0,50.0
538,bronx,Belmont,576 East 187th Street,0.5,1.0,520.72,1425.0,-73.8883257,40.8558177,10458.0,48.0
539,bronx,Melrose,418 East 153rd Street,2.0,1.0,847.94,2400.0,-73.91607623076924,40.81868346153846,10455.0,42.0
540,bronx,North New York,109 Bruckner Boulevard,2.0,1.0,854.49,2600.0,-73.92268733333333,40.80491333333334,10454.0,44.0
541,bronx,Concourse,1575 Grand Concourse,2.0,1.0,832.4,1925.0,-73.9123122,40.8431275,10452.0,44.0
542,bronx,University Heights,2265 University Avenue,3.0,2.0,1359.97,2600.0,-73.90745559210526,40.86010392105263,10468.0,52.0
543,bronx,Riverdale,6214 Riverdale Avenue,1.0,400.0,123752.31,1500.0,-73.90234519130219,40.91199305,10471.0,50.0
544,bronx,west concourse,25 Bruckner Boulevard,2.0,1.0,882.29,3450.0,-73.92854636363636,40.80737736363636,10454.0,44.0
545,bronx,west concourse,25 Bruckner Boulevard,2.0,2.0,1194.16,3550.0,-73.92854636363636,40.80737736363636,10454.0,44.0
546,bronx,Spuyten Duyvil,530 West 236th Street,3.0,2.0,1379.44,3195.0,-73.90814375510205,40.88633371428571,10463.0,50.0
547,bronx,Hunts Point,657 Manida Street,1.0,1.0,636.5,1955.0,-73.88817171428572,40.81321128571429,10474.0,43.0
548,bronx,west concourse,25 Bruckner Boulevard,1.0,1.0,654.33,2500.0,-73.92854636363636,40.80737736363636,10454.0,44.0
549,bronx,west concourse,25 Bruckner Boulevard,2.0,2.0,1194.16,3550.0,-73.92854636363636,40.80737736363636,10454.0,44.0
550,bronx,west concourse,228 East 135th Street,0.5,1.0,534.62,1850.0,-73.93017744736842,40.81041402631579,10451.0,44.0
551,bronx,Mott Haven,112 Lincoln Avenue,2.0,1.0,847.94,2400.0,-73.9292425,40.8077952,10454.0,44.0
552,bronx,Soundview,1770 East 172nd Street,1.0,1.0,626.52,1650.0,-73.867948,40.832678,10472.0,43.0
553,bronx,Fordham,2692 Creston Avenue,1.0,1.0,641.08,2095.0,-73.8944626388889,40.86778669444444,10468.0,52.0
554,bronx,Co-op City,2211 De Reimer Avenue,3.0,1.0,1056.28,2750.0,-73.843743,40.895621,10466.0,49.0
555,bronx,Spuyten Duyvil,2475 Palisade Avenue,2.0,1.0,857.76,2700.0,-73.92244884859079,40.88006243414199,10463.0,50.0
556,bronx,Fordham,2630 Marion Avenue,2.0,1.0,844.51,2295.0,-73.8911031,40.864176,10458.0,52.0
557,bronx,Morris Park,1063 Rhinelander Avenue,3.0,2.0,1373.06,3000.0,-73.85572466666666,40.85108488888889,10461.0,49.0
558,bronx,Highbridge,979 Summit Avenue,1.0,1.0,415.0,2000.0,-73.93058257692309,40.832743923076926,10452.0,44.0
559,bronx,Tremont,2180 Ryer Avenue,2.0,1.0,833.22,1950.0,-73.89984921052631,40.854986,10457.0,46.0
560,bronx,west concourse,228 East 135th Street,1.0,1.0,646.35,2256.0,-73.93017744736842,40.81041402631579,10451.0,44.0
561,bronx,west concourse,224 East 135th Street,1.0,1.0,643.21,2160.0,-73.93019397368421,40.81042676315789,10451.0,44.0
562,bronx,Spuyten Duyvil,2601 Henry Hudson Parkway West,1.0,1.0,644.35,2195.0,-73.91756,40.881456,10463.0,50.0
563,bronx,Concourse,975 Sherman Avenue,3.0,1.0,1048.07,2499.0,-73.91901506451613,40.82861761290322,10456.0,44.0
564,bronx,Mott Haven,2401 3rd Avenue,0.5,1.0,568.81,2895.0,-73.931714,40.808009,10451.0,44.0
565,bronx,Parkchester,1604 Metropolitan Avenue,2.0,1.0,858.0,1950.0,-73.8566075,40.8396471,10462.0,43.0
566,bronx,Parkchester,1575 Odell Street,2.0,1.0,834.0,1950.0,-73.85473400000001,40.8385035,10462.0,43.0
567,bronx,Parkchester,24 Metropolitan Oval,1.0,1.0,636.0,1600.0,-73.8582645,40.8381202,10462.0,43.0
569,bronx,City Island,456 City Island Avenue,1.0,1.0,613.76,1260.0,-73.78830662499999,40.851106375,10464.0,45.0
571,bronx,Pelham Parkway,2198 Cruger Avenue,0.5,1.0,526.44,1600.0,-73.8665085,40.8563031,10462.0,49.0
572,bronx,Spuyten Duyvil,2727 Henry Hudson Parkway West,2.0,2.0,1000.0,3528.0,-73.91708628571428,40.88188030612245,10463.0,50.0
573,bronx,University Heights,2290 Andrews Avenue North,3.0,1.0,1041.56,2300.0,-73.90781529729729,40.860781135135134,10468.0,52.0
574,bronx,Concourse,1075 Grant Avenue,2.0,1.0,846.31,2350.0,-73.9167652,40.8307762,10456.0,44.0
575,bronx,Spuyten Duyvil,530 West 236th Street,3.0,2.0,1379.44,3195.0,-73.90814375510205,40.88633371428571,10463.0,50.0
576,bronx,Mt. Hope,105 East 177th Street,2.0,1.0,838.95,2125.0,-73.9078088,40.8497292,10453.0,46.0
577,bronx,Highbridge,155 West 162nd Street,3.0,1.0,1041.56,2300.0,-73.930402,40.831833,10452.0,44.0
578,bronx,Mott Haven,2401 3rd Avenue,0.5,1.0,568.81,2895.0,-73.931714,40.808009,10451.0,44.0
579,bronx,Riverdale,3820 Waldo Avenue,2.0,1.0,838.13,2100.0,-73.9035146,40.887669,10463.0,50.0
580,bronx,Throgs Neck,3255 Randall Avenue,2.0,1.0,844.67,2300.0,-73.814861,40.829629833333335,10465.0,43.0
581,bronx,Kingsbridge,288 West 238th Street,1.0,1.0,633.88,1875.0,-73.90219244444445,40.885766,10463.0,50.0
583,bronx,Spuyten Duyvil,530 West 236th Street,3.0,2.0,1379.44,3195.0,-73.90814375510205,40.88633371428571,10463.0,50.0
584,bronx,Mt. Hope,255 East 176th Street,1.0,1.0,626.52,1650.0,-73.904767,40.847491,10457.0,46.0
585,bronx,Kingsbridge Heights,2854 Kingsbridge Terrace,3.0,1.0,1100.0,2500.0,-73.9024573959619,40.87446118330048,10463.0,50.0
586,bronx,Spuyten Duyvil,3251 Cambridge Avenue,2.0,1.0,1100.0,2500.0,-73.90863905473834,40.88411748939272,10463.0,50.0
587,bronx,Pelham Gardens,2571 Kingsland Avenue,3.0,1.0,1059.23,2840.0,-73.8390218989899,40.863586363636365,10469.0,49.0
588,bronx,Concourse,1075 Grant Avenue,2.0,1.0,846.31,2350.0,-73.9167652,40.8307762,10456.0,44.0
589,bronx,Hunts Point,657 Manida Street,1.0,1.0,636.5,1955.0,-73.88817171428572,40.81321128571429,10474.0,43.0
590,bronx,Spuyten Duyvil,2500 Johnson Avenue,4.0,4.0,3000.0,9000.0,-73.91766358803116,40.876679800000005,10463.0,50.0
591,bronx,Concourse,85 Mcclellan Street,2.0,1.5,1005.51,2500.0,-73.9210023,40.833866,10452.0,44.0
592,bronx,west concourse,228 East 135th Street,1.0,1.0,646.35,2256.0,-73.93017744736842,40.81041402631579,10451.0,44.0
593,bronx,North New York,538 East 142nd Street,1.0,1.0,637.94,1999.0,-73.91684683673469,40.810010795918366,10454.0,44.0
594,bronx,Spuyten Duyvil,3660 Oxford Avenue,1.0,1.0,1000.0,2330.0,-73.90864542865134,40.887731847154335,10463.0,50.0
595,bronx,Riverdale,4475 Henry Hudson Parkway West,0.5,1.5,845.0,1771.0,-73.9092048,40.8904023,10471.0,50.0
596,bronx,Concourse,1521 Sheridan Avenue,1.0,1.0,628.16,1700.0,-73.9112533,40.8415456,10457.0,44.0
597,bronx,East Tremont,2004 Crotona Avenue,4.0,2.0,1561.77,2750.0,-73.88976466666666,40.84687853333334,10457.0,48.0
598,bronx,University Heights,2419 Davidson Avenue,1.0,1.0,624.72,1595.0,-73.90288088888889,40.86203055555556,10468.0,52.0
599,bronx,University Heights,2170 University Avenue,0.5,1.0,518.26,1350.0,-73.909629,40.857403,10453.0,46.0
600,bronx,Williamsbridge,3535 Barnes Avenue,4.0,1.5,1402.56,2600.0,-73.86175083783783,40.87773416216216,10467.0,49.0
601,bronx,Concourse,85 Mcclellan Street,1.0,1.0,637.97,2000.0,-73.9210023,40.833866,10452.0,44.0
602,bronx,Hunts Point,657 Manida Street,1.0,1.0,636.5,1955.0,-73.88817171428572,40.81321128571429,10474.0,43.0
603,bronx,west concourse,224 East 135th Street,2.0,1.0,851.22,2500.0,-73.93019397368421,40.81042676315789,10451.0,44.0
604,bronx,Eastchester,3300 Palmer Avenue,2.0,1.0,831.59,1900.0,-73.834785,40.878203,10475.0,49.0
605,bronx,Throgs Neck,916 Wilcox Avenue,3.0,2.0,1373.06,3000.0,-73.81874423027703,40.83288767317281,10465.0,43.0
606,bronx,Mott Haven,2401 3rd Avenue,3.0,2.0,1475.59,6134.0,-73.931714,40.808009,10451.0,44.0
607,bronx,Soundview,880 Colgate Avenue,1.0,1.0,631.13,1791.0,-73.8801162631579,40.82090757894737,10473.0,43.0
608,bronx,Soundview,825 Boynton Avenue,3.0,1.5,1198.97,2395.0,-73.87633266666667,40.82004333333334,10473.0,43.0
609,bronx,Fordham,2763 Morris Avenue,1.0,1.0,641.24,2100.0,-73.89483608108108,40.86903143243243,10468.0,52.0
610,bronx,Pelham Gardens,1560 East Gun Hill Road,3.0,2.0,1373.06,3000.0,-73.83947401923076,40.867049788461536,10469.0,49.0
611,bronx,Mott Haven,2401 3rd Avenue,1.0,1.0,673.4,3083.0,-73.931714,40.808009,10451.0,44.0
612,bronx,west concourse,228 East 135th Street,0.5,1.0,534.62,1850.0,-73.93017744736842,40.81041402631579,10451.0,44.0
613,bronx,west concourse,228 East 135th Street,1.0,1.0,646.35,2256.0,-73.93017744736842,40.81041402631579,10451.0,44.0
614,bronx,west concourse,228 East 135th Street,2.0,1.0,853.18,2560.0,-73.93017744736842,40.81041402631579,10451.0,44.0
615,bronx,west concourse,228 East 135th Street,2.0,2.0,1190.21,3429.0,-73.93017744736842,40.81041402631579,10451.0,44.0
616,bronx,Hunts Point,657 Manida Street,3.0,2.0,1368.15,2850.0,-73.88817171428572,40.81321128571429,10474.0,43.0
617,bronx,Mott Haven,2401 3rd Avenue,1.0,1.0,673.4,3083.0,-73.931714,40.808009,10451.0,44.0
618,bronx,Mott Haven,2401 3rd Avenue,2.0,2.0,1228.87,4611.0,-73.931714,40.808009,10451.0,44.0
619,bronx,Williamsbridge,751 Tilden Street,1.0,1.0,621.61,1500.0,-73.86288408163266,40.87693016326531,10467.0,49.0
620,bronx,Mott Haven,2401 3rd Avenue,0.5,1.0,568.81,2895.0,-73.931714,40.808009,10451.0,44.0
621,bronx,University Heights,1 West 182nd Street,1.0,1.0,626.52,1650.0,-73.9048757,40.8572328,10453.0,46.0
622,bronx,Mott Haven,2490 Third Avenue,1.0,1.0,654.33,2500.0,-73.9302259,40.8089453,10037.0,44.0
623,bronx,Melrose,837 Washington Avenue,2.0,1.5,900.0,2300.0,-73.91173297959183,40.82240281632653,10451.0,42.0
624,bronx,Riverdale,3333 Henry Hudson Parkway,1.0,1.0,660.71,2695.0,-73.91344,40.8859933,10463.0,50.0
625,bronx,Riverdale,3824 Waldo Avenue,1.0,1.0,629.79,1750.0,-73.90360252500001,40.887641,10463.0,50.0
626,bronx,Concourse,215 East 164th Street,3.0,1.0,1045.65,2425.0,-73.918366,40.8289044375,10456.0,44.0
627,bronx,Riverdale,3707 Blackstone Avenue,3.0,2.0,1535.0,5300.0,-73.9117933,40.8886924,10463.0,50.0
628,bronx,University Heights,30 West 181st Street,1.0,1.0,626.52,1650.0,-73.9068615,40.8561404,10453.0,46.0
629,bronx,Concourse,930 Grand Concourse,3.0,2.0,1565.0,3050.0,-73.9216333,40.8281217,10451.0,44.0
630,bronx,Spuyten Duyvil,2600 Netherland Avenue,1.0,1.5,880.0,2545.0,-73.916036,40.878462,10463.0,50.0
631,bronx,Mt. Hope,1770 Grand Concourse,1.0,1.0,750.0,2299.0,-73.90939336111111,40.84672380555556,10453.0,46.0
632,bronx,Concourse,1180 Sherman Avenue,2.0,1.0,843.04,2250.0,-73.91611075,40.8332085,10456.0,44.0
633,bronx,Tremont,2120 Tiebout Avenue,2.0,1.0,844.67,2300.0,-73.8985872,40.8530993,10457.0,46.0
634,bronx,Mott Haven,2401 3rd Avenue,3.0,2.0,1432.11,4805.0,-73.931714,40.808009,10451.0,44.0
635,bronx,Highbridge,1075 Nelson Avenue,1.0,1.0,637.97,2000.0,-73.92756984210527,40.83466505263158,10452.0,44.0
636,bronx,Bedford Park,3128 Villa Avenue,2.0,1.0,820.14,1550.0,-73.88738642857143,40.875181,10468.0,52.0
637,bronx,North New York,582 East 138th Street,1.0,1.0,649.42,2350.0,-73.917012,40.80653112,10454.0,44.0
638,bronx,Norwood,55 West Mosholu Parkway North,3.0,1.0,1041.56,2300.0,-73.88484493555002,40.882423498675024,10467.0,52.0
639,bronx,melrose south-mott haven north,333 Cypress Avenue,2.0,1.0,844.67,2300.0,-73.91331353846154,40.80798553846154,10454.0,40.0
640,bronx,melrose south-mott haven north,333 Cypress Avenue,0.5,1.0,532.17,1775.0,-73.91331353846154,40.80798553846154,10454.0,40.0
641,bronx,North New York,532 East 142nd Street,2.0,1.0,844.67,2300.0,-73.91694902040817,40.81004477551021,10454.0,44.0
642,bronx,Spuyten Duyvil,2600 Netherland Avenue,1.0,1.0,870.0,2399.0,-73.916036,40.878462,10463.0,50.0
643,bronx,Spuyten Duyvil,2600 Netherland Avenue,2.0,2.0,1130.0,3450.0,-73.916036,40.878462,10463.0,50.0
644,bronx,Riverdale,3210 Riverdale Avenue,1.0,1.0,794.0,2300.0,-73.908409,40.882555,10463.0,50.0
645,bronx,Hunts Point,657 Manida Street,1.0,1.0,636.5,1955.0,-73.88817171428572,40.81321128571429,10474.0,43.0
646,bronx,Spuyten Duyvil,2600 Netherland Avenue,1.0,1.0,855.0,2350.0,-73.916036,40.878462,10463.0,50.0
647,bronx,North New York,133 Brown Place,0.5,1.0,529.71,1700.0,-73.92229393877551,40.80499289795919,10454.0,44.0
648,bronx,west concourse,228 East 135th Street,2.0,2.0,1190.21,3429.0,-73.93017744736842,40.81041402631579,10451.0,44.0
649,bronx,Spuyten Duyvil,531 West 235th Street,2.0,2.0,775.0,2750.0,-73.90858366666667,40.88548466666667,10463.0,50.0
650,bronx,Mott Haven,2401 3rd Avenue,3.0,2.0,1432.11,4805.0,-73.931714,40.808009,10451.0,44.0
651,bronx,Mott Haven,2401 3rd Avenue,3.0,2.0,1475.59,6134.0,-73.931714,40.808009,10451.0,44.0
652,bronx,Mott Haven,2401 3rd Avenue,2.0,2.0,1233.23,4744.0,-73.931714,40.808009,10451.0,44.0
653,bronx,Mott Haven,2401 3rd Avenue,0.5,1.0,582.09,3301.0,-73.931714,40.808009,10451.0,44.0
654,bronx,Mott Haven,2401 3rd Avenue,1.0,1.0,685.51,3453.0,-73.931714,40.808009,10451.0,44.0
655,bronx,Mott Haven,2401 3rd Avenue,2.0,2.0,1229.07,4617.0,-73.931714,40.808009,10451.0,44.0
656,bronx,Mott Haven,2401 3rd Avenue,0.5,1.0,568.81,2895.0,-73.931714,40.808009,10451.0,44.0
657,bronx,Mott Haven,2401 3rd Avenue,0.5,1.0,570.05,2933.0,-73.931714,40.808009,10451.0,44.0
658,bronx,Hunts Point,657 Manida Street,3.0,2.0,1368.15,2850.0,-73.88817171428572,40.81321128571429,10474.0,43.0
659,bronx,west concourse,224 East 135th Street,2.0,1.0,880.27,3388.0,-73.93019397368421,40.81042676315789,10451.0,44.0
660,bronx,Mott Haven,2401 3rd Avenue,0.5,1.0,572.28,3001.0,-73.931714,40.808009,10451.0,44.0
661,bronx,Soundview,1495 Westchester Avenue,3.0,1.0,1200.0,2300.0,-73.88042155555556,40.828567444444445,10472.0,43.0
662,bronx,Mott Haven,2401 3rd Avenue,0.5,1.0,572.28,3001.0,-73.931714,40.808009,10451.0,44.0
663,bronx,Riverdale,5711 Huxley Avenue,2.0,1.0,900.0,2100.0,-73.89871244444444,40.90593166666667,10471.0,50.0
664,bronx,Kingsbridge,3102 Kingsbridge Avenue,1.0,1.0,627.34,1675.0,-73.9062673,40.8799289,10463.0,50.0
665,bronx,Riverdale,6034 Huxley Avenue,3.0,1.5,2200.0,3990.0,-73.8978475945946,40.908511567567565,10471.0,50.0
666,bronx,Riverdale,4555 Henry Hudson Pkwy W,3.0,2.0,1350.0,3800.0,-73.90862986098736,40.89237262693487,10471.0,50.0
667,bronx,Tremont,1997 Morris Avenue,4.0,1.0,1254.8,2800.0,-73.907028,40.851719083333336,10453.0,46.0
668,bronx,Parkchester,1537 Rosedale Avenue,0.5,1.0,536.26,1900.0,-73.87017142857142,40.83847089795918,10460.0,43.0
669,bronx,North New York,460 Concord Avenue,3.0,1.0,1041.56,2300.0,-73.90885352,40.81079448,10455.0,40.0
670,bronx,Longwood,1047 Hoe Avenue,0.5,1.0,528.08,1650.0,-73.89060706122449,40.82405620408163,10459.0,42.0
671,bronx,Concourse,180 East 162nd Street,0.5,1.0,521.53,1450.0,-73.92108675510204,40.82725093877552,10451.0,44.0
672,bronx,Mt. Hope,1770 Grand Concourse,1.0,1.0,775.0,2199.0,-73.90939336111111,40.84672380555556,10453.0,46.0
673,bronx,Mott Haven,2401 3rd Avenue,2.0,2.0,1233.23,4744.0,-73.931714,40.808009,10451.0,44.0
674,bronx,Morris Park,1130 Pelham Parkway South,1.0,1.0,792.0,2099.0,-73.8563427,40.8567836,10461.0,49.0
675,bronx,Morris Park,1130 Pelham Parkway South,2.0,2.0,1125.0,2650.0,-73.8563427,40.8567836,10461.0,49.0
676,bronx,Mott Haven,2401 3rd Avenue,0.5,1.0,572.28,3001.0,-73.931714,40.808009,10451.0,44.0
677,bronx,Pelham Parkway,2198 Cruger Avenue,3.0,1.0,1049.74,2550.0,-73.8665085,40.8563031,10462.0,49.0
678,bronx,Belmont,2349 Arthur Avenue,4.0,1.0,1254.64,2795.0,-73.8886554,40.854442,10458.0,48.0
679,bronx,Riverdale,6214 Riverdale Avenue,1.0,1.0,650.0,1650.0,-73.90234519130219,40.91199305,10471.0,50.0
680,bronx,Belmont,450 East 184th Street,1.0,1.0,650.0,1500.0,-73.89361931578946,40.85615168421053,10458.0,48.0
681,bronx,Throgs Neck,3255 Randall Avenue,2.0,1.0,844.67,2300.0,-73.814861,40.829629833333335,10465.0,43.0
682,bronx,North New York,598 Beech Terrace,3.0,1.5,1218.76,3000.0,-73.91413346641838,40.80947043751915,10454.0,42.0
683,bronx,Riverdale,630 West 246th Street,2.0,2.0,1189.09,3395.0,-73.91121795238095,40.89229771428572,10471.0,50.0
684,bronx,Concourse,853 Walton Avenue,2.0,1.0,846.31,2350.0,-73.92463425806451,40.82648819354839,10451.0,44.0
685,bronx,Woodstock,790 East 152nd Street,1.0,1.0,618.34,1400.0,-73.9057512,40.815474,10455.0,42.0
686,bronx,Mott Haven,2401 3rd Avenue,3.0,2.0,1475.59,6134.0,-73.931714,40.808009,10451.0,44.0
687,bronx,Spuyten Duyvil,530 West 236th Street,3.0,2.0,1379.44,3195.0,-73.90814375510205,40.88633371428571,10463.0,50.0
688,bronx,Bronxwood,2385 Barker Avenue,2.0,2.0,1110.0,2400.0,-73.86955428571429,40.86106585714285,10467.0,49.0
689,bronx,Kingsbridge,3120 Kingsbridge Avenue,2.0,1.0,950.0,2050.0,-73.9058704,40.8803488,10463.0,50.0
690,bronx,Mott Haven,2401 3rd Avenue,0.5,1.0,568.81,2895.0,-73.931714,40.808009,10451.0,44.0
691,bronx,Concourse,1020 Grand Concourse,3.0,2.0,1366.51,2800.0,-73.92058694736842,40.83022331578947,10451.0,44.0
692,bronx,Riverdale,3707 Blackstone Avenue,3.0,2.0,1735.0,6600.0,-73.9117933,40.8886924,10463.0,50.0
693,bronx,Spuyten Duyvil,3614 Johnson Avenue,1.0,1.0,634.7,1900.0,-73.90946511111112,40.887027814814815,10463.0,50.0
694,bronx,Spuyten Duyvil,2500 Johnson Avenue,2.0,2.0,1257.0,3299.0,-73.91766358803116,40.876679800000005,10463.0,50.0
695,bronx,Riverdale,3210 Riverdale Avenue,1.0,1.0,794.0,2300.0,-73.908409,40.882555,10463.0,50.0
696,bronx,Spuyten Duyvil,638 West 227th Street,2.0,1.5,1100.0,2500.0,-73.91665233333333,40.880920333333336,10463.0,50.0
697,bronx,Highbridge,1395 Nelson Avenue,0.5,1.0,527.26,1625.0,-73.922448,40.841984,10452.0,44.0
698,bronx,North New York,510 Jackson Avenue,3.0,1.0,1036.65,2150.0,-73.90930366666666,40.812280666666666,10455.0,42.0
699,bronx,Tremont,1970 Walton Avenue,1.0,1.0,623.25,1550.0,-73.9080584,40.8515375,10453.0,46.0
